{
"type": "FeatureCollection",
"name": "rus-points",
"crs": { "type": "name", "properties": { "name": "urn:ogc:def:crs:OGC:1.3:CRS84" } },
"features": [
{ "type": "Feature", "properties": { "cases": 703.0, "name_ru": "Москва", "month": 9 }, "geometry": { "type": "Point", "coordinates": [ 37.362445475776951, 55.499315019907002 ] } },
{ "type": "Feature", "properties": { "cases": 119.0, "name_ru": "Московскаяобласть", "month": 12 }, "geometry": { "type": "Point", "coordinates": [ 37.666151601855979, 55.666939030371552 ] } },
{ "type": "Feature", "properties": { "cases": 119.0, "name_ru": "Московскаяобласть", "month": 13 }, "geometry": { "type": "Point", "coordinates": [ 37.666151601855979, 55.666939030371552 ] } },
{ "type": "Feature", "properties": { "cases": 86.0, "name_ru": "Москва", "month": 0 }, "geometry": { "type": "Point", "coordinates": [ 37.362445475776951, 55.499315019907002 ] } },
{ "type": "Feature", "properties": { "cases": 2475.0, "name_ru": "Москва", "month": 15 }, "geometry": { "type": "Point", "coordinates": [ 37.362445475776951, 55.499315019907002 ] } },
{ "type": "Feature", "properties": { "cases": 85.0, "name_ru": "Московскаяобласть", "month": 10 }, "geometry": { "type": "Point", "coordinates": [ 37.666151601855979, 55.666939030371552 ] } },
{ "type": "Feature", "properties": { "cases": 13.0, "name_ru": "Пермскийкрай", "month": 13 }, "geometry": { "type": "Point", "coordinates": [ 56.225532548350479, 59.116299055761317 ] } },
{ "type": "Feature", "properties": { "cases": 13.0, "name_ru": "Пермскийкрай", "month": 14 }, "geometry": { "type": "Point", "coordinates": [ 56.225532548350479, 59.116299055761317 ] } },
{ "type": "Feature", "properties": { "cases": 13.0, "name_ru": "Пермскийкрай", "month": 15 }, "geometry": { "type": "Point", "coordinates": [ 56.225532548350479, 59.116299055761317 ] } },
{ "type": "Feature", "properties": { "cases": 13.0, "name_ru": "РеспубликаБурятия", "month": 13 }, "geometry": { "type": "Point", "coordinates": [ 109.478140742109986, 53.546571553948844 ] } },
{ "type": "Feature", "properties": { "cases": 13.0, "name_ru": "РеспубликаДагестан", "month": 14 }, "geometry": { "type": "Point", "coordinates": [ 46.870781419485624, 43.016812411979906 ] } },
{ "type": "Feature", "properties": { "cases": 13.0, "name_ru": "Свердловскаяобласть", "month": 7 }, "geometry": { "type": "Point", "coordinates": [ 61.530809127245391, 58.594500499194439 ] } },
{ "type": "Feature", "properties": { "cases": 13.0, "name_ru": "Свердловскаяобласть", "month": 8 }, "geometry": { "type": "Point", "coordinates": [ 61.530809127245391, 58.594500499194439 ] } },
{ "type": "Feature", "properties": { "cases": 25.0, "name_ru": "Красноярскийкрай", "month": 16 }, "geometry": { "type": "Point", "coordinates": [ 95.998539466267871, 67.470989500619254 ] } },
{ "type": "Feature", "properties": { "cases": 25.0, "name_ru": "Нижегородскаяобласть", "month": 15 }, "geometry": { "type": "Point", "coordinates": [ 44.639346614989805, 56.291885409958624 ] } },
{ "type": "Feature", "properties": { "cases": 25.0, "name_ru": "РеспубликаБурятия", "month": 15 }, "geometry": { "type": "Point", "coordinates": [ 109.478140742109986, 53.546571553948844 ] } },
{ "type": "Feature", "properties": { "cases": 25.0, "name_ru": "РеспубликаДагестан", "month": 16 }, "geometry": { "type": "Point", "coordinates": [ 46.870781419485624, 43.016812411979906 ] } },
{ "type": "Feature", "properties": { "cases": 19.0, "name_ru": "Калининградскаяобласть", "month": 15 }, "geometry": { "type": "Point", "coordinates": [ 21.386649725974994, 54.719289317912541 ] } },
{ "type": "Feature", "properties": { "cases": 19.0, "name_ru": "РеспубликаБурятия", "month": 14 }, "geometry": { "type": "Point", "coordinates": [ 109.478140742109986, 53.546571553948844 ] } },
{ "type": "Feature", "properties": { "cases": 19.0, "name_ru": "РеспубликаТатарстан", "month": 14 }, "geometry": { "type": "Point", "coordinates": [ 50.911599165160609, 55.359286667923655 ] } },
{ "type": "Feature", "properties": { "cases": 19.0, "name_ru": "РеспубликаТатарстан", "month": 15 }, "geometry": { "type": "Point", "coordinates": [ 50.911599165160609, 55.359286667923655 ] } },
{ "type": "Feature", "properties": { "cases": 19.0, "name_ru": "РеспубликаТатарстан", "month": 16 }, "geometry": { "type": "Point", "coordinates": [ 50.911599165160609, 55.359286667923655 ] } },
{ "type": "Feature", "properties": { "cases": 3.0, "name_ru": "Кировскаяобласть", "month": 2 }, "geometry": { "type": "Point", "coordinates": [ 49.830485442775995, 58.685751707728116 ] } },
{ "type": "Feature", "properties": { "cases": 3.0, "name_ru": "Краснодарскийкрай", "month": 2 }, "geometry": { "type": "Point", "coordinates": [ 39.465728558210685, 45.260490148450955 ] } },
{ "type": "Feature", "properties": { "cases": 3.0, "name_ru": "Краснодарскийкрай", "month": 3 }, "geometry": { "type": "Point", "coordinates": [ 39.465728558210685, 45.260490148450955 ] } },
{ "type": "Feature", "properties": { "cases": 3.0, "name_ru": "Ленинградскаяобласть", "month": 7 }, "geometry": { "type": "Point", "coordinates": [ 31.709207150932414, 60.007255664012277 ] } },
{ "type": "Feature", "properties": { "cases": 3.0, "name_ru": "Ленинградскаяобласть", "month": 8 }, "geometry": { "type": "Point", "coordinates": [ 31.709207150932414, 60.007255664012277 ] } },
{ "type": "Feature", "properties": { "cases": 3.0, "name_ru": "Ленинградскаяобласть", "month": 9 }, "geometry": { "type": "Point", "coordinates": [ 31.709207150932414, 60.007255664012277 ] } },
{ "type": "Feature", "properties": { "cases": 3.0, "name_ru": "Ленинградскаяобласть", "month": 10 }, "geometry": { "type": "Point", "coordinates": [ 31.709207150932414, 60.007255664012277 ] } },
{ "type": "Feature", "properties": { "cases": 3.0, "name_ru": "Липецкаяобласть", "month": 0 }, "geometry": { "type": "Point", "coordinates": [ 39.135426015731078, 52.645878641028062 ] } },
{ "type": "Feature", "properties": { "cases": 3.0, "name_ru": "Липецкаяобласть", "month": 1 }, "geometry": { "type": "Point", "coordinates": [ 39.135426015731078, 52.645878641028062 ] } },
{ "type": "Feature", "properties": { "cases": 3.0, "name_ru": "Липецкаяобласть", "month": 2 }, "geometry": { "type": "Point", "coordinates": [ 39.135426015731078, 52.645878641028062 ] } },
{ "type": "Feature", "properties": { "cases": 3.0, "name_ru": "Липецкаяобласть", "month": 3 }, "geometry": { "type": "Point", "coordinates": [ 39.135426015731078, 52.645878641028062 ] } },
{ "type": "Feature", "properties": { "cases": 3.0, "name_ru": "Липецкаяобласть", "month": 4 }, "geometry": { "type": "Point", "coordinates": [ 39.135426015731078, 52.645878641028062 ] } },
{ "type": "Feature", "properties": { "cases": 3.0, "name_ru": "Липецкаяобласть", "month": 5 }, "geometry": { "type": "Point", "coordinates": [ 39.135426015731078, 52.645878641028062 ] } },
{ "type": "Feature", "properties": { "cases": 49.0, "name_ru": "Московскаяобласть", "month": 9 }, "geometry": { "type": "Point", "coordinates": [ 37.666151601855979, 55.666939030371552 ] } },
{ "type": "Feature", "properties": { "cases": 3.0, "name_ru": "Мурманскаяобласть", "month": 12 }, "geometry": { "type": "Point", "coordinates": [ 34.59973759323772, 67.814617070277819 ] } },
{ "type": "Feature", "properties": { "cases": 3.0, "name_ru": "Нижегородскаяобласть", "month": 1 }, "geometry": { "type": "Point", "coordinates": [ 44.639346614989805, 56.291885409958624 ] } },
{ "type": "Feature", "properties": { "cases": 3.0, "name_ru": "Нижегородскаяобласть", "month": 2 }, "geometry": { "type": "Point", "coordinates": [ 44.639346614989805, 56.291885409958624 ] } },
{ "type": "Feature", "properties": { "cases": 3.0, "name_ru": "Пермскийкрай", "month": 2 }, "geometry": { "type": "Point", "coordinates": [ 56.225532548350479, 59.116299055761317 ] } },
{ "type": "Feature", "properties": { "cases": 3.0, "name_ru": "Пермскийкрай", "month": 3 }, "geometry": { "type": "Point", "coordinates": [ 56.225532548350479, 59.116299055761317 ] } },
{ "type": "Feature", "properties": { "cases": 3.0, "name_ru": "Пермскийкрай", "month": 4 }, "geometry": { "type": "Point", "coordinates": [ 56.225532548350479, 59.116299055761317 ] } },
{ "type": "Feature", "properties": { "cases": 3.0, "name_ru": "Пермскийкрай", "month": 5 }, "geometry": { "type": "Point", "coordinates": [ 56.225532548350479, 59.116299055761317 ] } },
{ "type": "Feature", "properties": { "cases": 3.0, "name_ru": "Пермскийкрай", "month": 6 }, "geometry": { "type": "Point", "coordinates": [ 56.225532548350479, 59.116299055761317 ] } },
{ "type": "Feature", "properties": { "cases": 3.0, "name_ru": "Пермскийкрай", "month": 7 }, "geometry": { "type": "Point", "coordinates": [ 56.225532548350479, 59.116299055761317 ] } },
{ "type": "Feature", "properties": { "cases": 3.0, "name_ru": "РеспубликаБашкортостан", "month": 7 }, "geometry": { "type": "Point", "coordinates": [ 56.513672227916707, 54.273768743977421 ] } },
{ "type": "Feature", "properties": { "cases": 3.0, "name_ru": "РеспубликаКоми", "month": 8 }, "geometry": { "type": "Point", "coordinates": [ 54.783968874283417, 64.128449926011754 ] } },
{ "type": "Feature", "properties": { "cases": 3.0, "name_ru": "РеспубликаКоми", "month": 9 }, "geometry": { "type": "Point", "coordinates": [ 54.783968874283417, 64.128449926011754 ] } },
{ "type": "Feature", "properties": { "cases": 3.0, "name_ru": "РеспубликаКоми", "month": 10 }, "geometry": { "type": "Point", "coordinates": [ 54.783968874283417, 64.128449926011754 ] } },
{ "type": "Feature", "properties": { "cases": 3.0, "name_ru": "РеспубликаКоми", "month": 11 }, "geometry": { "type": "Point", "coordinates": [ 54.783968874283417, 64.128449926011754 ] } },
{ "type": "Feature", "properties": { "cases": 3.0, "name_ru": "Тульскаяобласть", "month": 2 }, "geometry": { "type": "Point", "coordinates": [ 37.558287822570264, 53.893618744970098 ] } },
{ "type": "Feature", "properties": { "cases": 3.0, "name_ru": "Тульскаяобласть", "month": 3 }, "geometry": { "type": "Point", "coordinates": [ 37.558287822570264, 53.893618744970098 ] } },
{ "type": "Feature", "properties": { "cases": 3.0, "name_ru": "ЧеченскаяРеспублика", "month": 9 }, "geometry": { "type": "Point", "coordinates": [ 45.74164439305715, 43.30218552100024 ] } },
{ "type": "Feature", "properties": { "cases": 3.0, "name_ru": "ЧеченскаяРеспублика", "month": 10 }, "geometry": { "type": "Point", "coordinates": [ 45.74164439305715, 43.30218552100024 ] } },
{ "type": "Feature", "properties": { "cases": 37.0, "name_ru": "Санкт-Петербург", "month": 10 }, "geometry": { "type": "Point", "coordinates": [ 30.186235412549767, 59.899024581648547 ] } },
{ "type": "Feature", "properties": { "cases": 147.0, "name_ru": "Санкт-Петербург", "month": 15 }, "geometry": { "type": "Point", "coordinates": [ 30.186235412549767, 59.899024581648547 ] } },
{ "type": "Feature", "properties": { "cases": 546.0, "name_ru": "Москва", "month": 8 }, "geometry": { "type": "Point", "coordinates": [ 37.362445475776951, 55.499315019907002 ] } },
{ "type": "Feature", "properties": { "cases": 22.0, "name_ru": "Краснодарскийкрай", "month": 15 }, "geometry": { "type": "Point", "coordinates": [ 39.465728558210685, 45.260490148450955 ] } },
{ "type": "Feature", "properties": { "cases": 22.0, "name_ru": "Краснодарскийкрай", "month": 16 }, "geometry": { "type": "Point", "coordinates": [ 39.465728558210685, 45.260490148450955 ] } },
{ "type": "Feature", "properties": { "cases": 22.0, "name_ru": "РеспубликаКоми", "month": 13 }, "geometry": { "type": "Point", "coordinates": [ 54.783968874283417, 64.128449926011754 ] } },
{ "type": "Feature", "properties": { "cases": 22.0, "name_ru": "РеспубликаКоми", "month": 14 }, "geometry": { "type": "Point", "coordinates": [ 54.783968874283417, 64.128449926011754 ] } },
{ "type": "Feature", "properties": { "cases": 54.0, "name_ru": "РеспубликаКоми", "month": 15 }, "geometry": { "type": "Point", "coordinates": [ 54.783968874283417, 64.128449926011754 ] } },
{ "type": "Feature", "properties": { "cases": 8.0, "name_ru": "Воронежскаяобласть", "month": 14 }, "geometry": { "type": "Point", "coordinates": [ 40.217910960847362, 50.970836360511321 ] } },
{ "type": "Feature", "properties": { "cases": 8.0, "name_ru": "Калининградскаяобласть", "month": 7 }, "geometry": { "type": "Point", "coordinates": [ 21.386649725974994, 54.719289317912541 ] } },
{ "type": "Feature", "properties": { "cases": 8.0, "name_ru": "Калининградскаяобласть", "month": 8 }, "geometry": { "type": "Point", "coordinates": [ 21.386649725974994, 54.719289317912541 ] } },
{ "type": "Feature", "properties": { "cases": 8.0, "name_ru": "Калининградскаяобласть", "month": 9 }, "geometry": { "type": "Point", "coordinates": [ 21.386649725974994, 54.719289317912541 ] } },
{ "type": "Feature", "properties": { "cases": 8.0, "name_ru": "Кировскаяобласть", "month": 10 }, "geometry": { "type": "Point", "coordinates": [ 49.830485442775995, 58.685751707728116 ] } },
{ "type": "Feature", "properties": { "cases": 8.0, "name_ru": "Кировскаяобласть", "month": 11 }, "geometry": { "type": "Point", "coordinates": [ 49.830485442775995, 58.685751707728116 ] } },
{ "type": "Feature", "properties": { "cases": 8.0, "name_ru": "Красноярскийкрай", "month": 9 }, "geometry": { "type": "Point", "coordinates": [ 95.998539466267871, 67.470989500619254 ] } },
{ "type": "Feature", "properties": { "cases": 8.0, "name_ru": "Красноярскийкрай", "month": 10 }, "geometry": { "type": "Point", "coordinates": [ 95.998539466267871, 67.470989500619254 ] } },
{ "type": "Feature", "properties": { "cases": 8.0, "name_ru": "Липецкаяобласть", "month": 10 }, "geometry": { "type": "Point", "coordinates": [ 39.135426015731078, 52.645878641028062 ] } },
{ "type": "Feature", "properties": { "cases": 134.0, "name_ru": "Московскаяобласть", "month": 14 }, "geometry": { "type": "Point", "coordinates": [ 37.666151601855979, 55.666939030371552 ] } },
{ "type": "Feature", "properties": { "cases": 8.0, "name_ru": "Нижегородскаяобласть", "month": 7 }, "geometry": { "type": "Point", "coordinates": [ 44.639346614989805, 56.291885409958624 ] } },
{ "type": "Feature", "properties": { "cases": 8.0, "name_ru": "Нижегородскаяобласть", "month": 8 }, "geometry": { "type": "Point", "coordinates": [ 44.639346614989805, 56.291885409958624 ] } },
{ "type": "Feature", "properties": { "cases": 8.0, "name_ru": "Нижегородскаяобласть", "month": 9 }, "geometry": { "type": "Point", "coordinates": [ 44.639346614989805, 56.291885409958624 ] } },
{ "type": "Feature", "properties": { "cases": 8.0, "name_ru": "Новосибирскаяобласть", "month": 12 }, "geometry": { "type": "Point", "coordinates": [ 79.758095846238163, 55.280746103662807 ] } },
{ "type": "Feature", "properties": { "cases": 8.0, "name_ru": "РеспубликаБашкортостан", "month": 15 }, "geometry": { "type": "Point", "coordinates": [ 56.513672227916707, 54.273768743977421 ] } },
{ "type": "Feature", "properties": { "cases": 8.0, "name_ru": "РеспубликаБурятия", "month": 11 }, "geometry": { "type": "Point", "coordinates": [ 109.478140742109986, 53.546571553948844 ] } },
{ "type": "Feature", "properties": { "cases": 8.0, "name_ru": "РеспубликаБурятия", "month": 12 }, "geometry": { "type": "Point", "coordinates": [ 109.478140742109986, 53.546571553948844 ] } },
{ "type": "Feature", "properties": { "cases": 8.0, "name_ru": "Тульскаяобласть", "month": 10 }, "geometry": { "type": "Point", "coordinates": [ 37.558287822570264, 53.893618744970098 ] } },
{ "type": "Feature", "properties": { "cases": 42.0, "name_ru": "Санкт-Петербург", "month": 11 }, "geometry": { "type": "Point", "coordinates": [ 30.186235412549767, 59.899024581648547 ] } },
{ "type": "Feature", "properties": { "cases": 31.0, "name_ru": "Ленинградскаяобласть", "month": 16 }, "geometry": { "type": "Point", "coordinates": [ 31.709207150932414, 60.007255664012277 ] } },
{ "type": "Feature", "properties": { "cases": 1014.0, "name_ru": "Москва", "month": 11 }, "geometry": { "type": "Point", "coordinates": [ 37.362445475776951, 55.499315019907002 ] } },
{ "type": "Feature", "properties": { "cases": 5.0, "name_ru": "Калининградскаяобласть", "month": 0 }, "geometry": { "type": "Point", "coordinates": [ 21.386649725974994, 54.719289317912541 ] } },
{ "type": "Feature", "properties": { "cases": 5.0, "name_ru": "Калининградскаяобласть", "month": 1 }, "geometry": { "type": "Point", "coordinates": [ 21.386649725974994, 54.719289317912541 ] } },
{ "type": "Feature", "properties": { "cases": 5.0, "name_ru": "Калининградскаяобласть", "month": 2 }, "geometry": { "type": "Point", "coordinates": [ 21.386649725974994, 54.719289317912541 ] } },
{ "type": "Feature", "properties": { "cases": 5.0, "name_ru": "Кировскаяобласть", "month": 3 }, "geometry": { "type": "Point", "coordinates": [ 49.830485442775995, 58.685751707728116 ] } },
{ "type": "Feature", "properties": { "cases": 5.0, "name_ru": "Кировскаяобласть", "month": 4 }, "geometry": { "type": "Point", "coordinates": [ 49.830485442775995, 58.685751707728116 ] } },
{ "type": "Feature", "properties": { "cases": 5.0, "name_ru": "Краснодарскийкрай", "month": 4 }, "geometry": { "type": "Point", "coordinates": [ 39.465728558210685, 45.260490148450955 ] } },
{ "type": "Feature", "properties": { "cases": 5.0, "name_ru": "Краснодарскийкрай", "month": 5 }, "geometry": { "type": "Point", "coordinates": [ 39.465728558210685, 45.260490148450955 ] } },
{ "type": "Feature", "properties": { "cases": 5.0, "name_ru": "Краснодарскийкрай", "month": 6 }, "geometry": { "type": "Point", "coordinates": [ 39.465728558210685, 45.260490148450955 ] } },
{ "type": "Feature", "properties": { "cases": 5.0, "name_ru": "Краснодарскийкрай", "month": 7 }, "geometry": { "type": "Point", "coordinates": [ 39.465728558210685, 45.260490148450955 ] } },
{ "type": "Feature", "properties": { "cases": 5.0, "name_ru": "Красноярскийкрай", "month": 4 }, "geometry": { "type": "Point", "coordinates": [ 95.998539466267871, 67.470989500619254 ] } },
{ "type": "Feature", "properties": { "cases": 5.0, "name_ru": "Красноярскийкрай", "month": 5 }, "geometry": { "type": "Point", "coordinates": [ 95.998539466267871, 67.470989500619254 ] } },
{ "type": "Feature", "properties": { "cases": 5.0, "name_ru": "Красноярскийкрай", "month": 6 }, "geometry": { "type": "Point", "coordinates": [ 95.998539466267871, 67.470989500619254 ] } },
{ "type": "Feature", "properties": { "cases": 5.0, "name_ru": "Красноярскийкрай", "month": 7 }, "geometry": { "type": "Point", "coordinates": [ 95.998539466267871, 67.470989500619254 ] } },
{ "type": "Feature", "properties": { "cases": 5.0, "name_ru": "Красноярскийкрай", "month": 8 }, "geometry": { "type": "Point", "coordinates": [ 95.998539466267871, 67.470989500619254 ] } },
{ "type": "Feature", "properties": { "cases": 5.0, "name_ru": "Липецкаяобласть", "month": 6 }, "geometry": { "type": "Point", "coordinates": [ 39.135426015731078, 52.645878641028062 ] } },
{ "type": "Feature", "properties": { "cases": 5.0, "name_ru": "Липецкаяобласть", "month": 7 }, "geometry": { "type": "Point", "coordinates": [ 39.135426015731078, 52.645878641028062 ] } },
{ "type": "Feature", "properties": { "cases": 5.0, "name_ru": "Липецкаяобласть", "month": 8 }, "geometry": { "type": "Point", "coordinates": [ 39.135426015731078, 52.645878641028062 ] } },
{ "type": "Feature", "properties": { "cases": 5.0, "name_ru": "Липецкаяобласть", "month": 9 }, "geometry": { "type": "Point", "coordinates": [ 39.135426015731078, 52.645878641028062 ] } },
{ "type": "Feature", "properties": { "cases": 5.0, "name_ru": "Мурманскаяобласть", "month": 13 }, "geometry": { "type": "Point", "coordinates": [ 34.59973759323772, 67.814617070277819 ] } },
{ "type": "Feature", "properties": { "cases": 5.0, "name_ru": "Новосибирскаяобласть", "month": 9 }, "geometry": { "type": "Point", "coordinates": [ 79.758095846238163, 55.280746103662807 ] } },
{ "type": "Feature", "properties": { "cases": 5.0, "name_ru": "Новосибирскаяобласть", "month": 10 }, "geometry": { "type": "Point", "coordinates": [ 79.758095846238163, 55.280746103662807 ] } },
{ "type": "Feature", "properties": { "cases": 5.0, "name_ru": "Пермскийкрай", "month": 8 }, "geometry": { "type": "Point", "coordinates": [ 56.225532548350479, 59.116299055761317 ] } },
{ "type": "Feature", "properties": { "cases": 5.0, "name_ru": "РеспубликаБашкортостан", "month": 12 }, "geometry": { "type": "Point", "coordinates": [ 56.513672227916707, 54.273768743977421 ] } },
{ "type": "Feature", "properties": { "cases": 5.0, "name_ru": "РеспубликаБашкортостан", "month": 13 }, "geometry": { "type": "Point", "coordinates": [ 56.513672227916707, 54.273768743977421 ] } },
{ "type": "Feature", "properties": { "cases": 5.0, "name_ru": "Самарскаяобласть", "month": 0 }, "geometry": { "type": "Point", "coordinates": [ 50.468913359104327, 53.279986967229924 ] } },
{ "type": "Feature", "properties": { "cases": 5.0, "name_ru": "Самарскаяобласть", "month": 1 }, "geometry": { "type": "Point", "coordinates": [ 50.468913359104327, 53.279986967229924 ] } },
{ "type": "Feature", "properties": { "cases": 5.0, "name_ru": "Самарскаяобласть", "month": 2 }, "geometry": { "type": "Point", "coordinates": [ 50.468913359104327, 53.279986967229924 ] } },
{ "type": "Feature", "properties": { "cases": 5.0, "name_ru": "Ставропольскийкрай", "month": 9 }, "geometry": { "type": "Point", "coordinates": [ 43.35164379866783, 44.952534638070283 ] } },
{ "type": "Feature", "properties": { "cases": 5.0, "name_ru": "Ставропольскийкрай", "month": 10 }, "geometry": { "type": "Point", "coordinates": [ 43.35164379866783, 44.952534638070283 ] } },
{ "type": "Feature", "properties": { "cases": 5.0, "name_ru": "Ставропольскийкрай", "month": 11 }, "geometry": { "type": "Point", "coordinates": [ 43.35164379866783, 44.952534638070283 ] } },
{ "type": "Feature", "properties": { "cases": 5.0, "name_ru": "Ставропольскийкрай", "month": 12 }, "geometry": { "type": "Point", "coordinates": [ 43.35164379866783, 44.952534638070283 ] } },
{ "type": "Feature", "properties": { "cases": 5.0, "name_ru": "Тульскаяобласть", "month": 4 }, "geometry": { "type": "Point", "coordinates": [ 37.558287822570264, 53.893618744970098 ] } },
{ "type": "Feature", "properties": { "cases": 5.0, "name_ru": "Тульскаяобласть", "month": 5 }, "geometry": { "type": "Point", "coordinates": [ 37.558287822570264, 53.893618744970098 ] } },
{ "type": "Feature", "properties": { "cases": 5.0, "name_ru": "Тульскаяобласть", "month": 6 }, "geometry": { "type": "Point", "coordinates": [ 37.558287822570264, 53.893618744970098 ] } },
{ "type": "Feature", "properties": { "cases": 5.0, "name_ru": "Тульскаяобласть", "month": 7 }, "geometry": { "type": "Point", "coordinates": [ 37.558287822570264, 53.893618744970098 ] } },
{ "type": "Feature", "properties": { "cases": 5.0, "name_ru": "Челябинскаяобласть", "month": 9 }, "geometry": { "type": "Point", "coordinates": [ 60.390486642675604, 54.450379902463695 ] } },
{ "type": "Feature", "properties": { "cases": 5.0, "name_ru": "Челябинскаяобласть", "month": 10 }, "geometry": { "type": "Point", "coordinates": [ 60.390486642675604, 54.450379902463695 ] } },
{ "type": "Feature", "properties": { "cases": 5.0, "name_ru": "ЧеченскаяРеспублика", "month": 11 }, "geometry": { "type": "Point", "coordinates": [ 45.74164439305715, 43.30218552100024 ] } },
{ "type": "Feature", "properties": { "cases": 24.0, "name_ru": "Свердловскаяобласть", "month": 11 }, "geometry": { "type": "Point", "coordinates": [ 61.530809127245391, 58.594500499194439 ] } },
{ "type": "Feature", "properties": { "cases": 24.0, "name_ru": "Свердловскаяобласть", "month": 12 }, "geometry": { "type": "Point", "coordinates": [ 61.530809127245391, 58.594500499194439 ] } },
{ "type": "Feature", "properties": { "cases": 24.0, "name_ru": "Свердловскаяобласть", "month": 13 }, "geometry": { "type": "Point", "coordinates": [ 61.530809127245391, 58.594500499194439 ] } },
{ "type": "Feature", "properties": { "cases": 18.0, "name_ru": "Московскаяобласть", "month": 2 }, "geometry": { "type": "Point", "coordinates": [ 37.666151601855979, 55.666939030371552 ] } },
{ "type": "Feature", "properties": { "cases": 14.0, "name_ru": "Красноярскийкрай", "month": 13 }, "geometry": { "type": "Point", "coordinates": [ 95.998539466267871, 67.470989500619254 ] } },
{ "type": "Feature", "properties": { "cases": 14.0, "name_ru": "Красноярскийкрай", "month": 14 }, "geometry": { "type": "Point", "coordinates": [ 95.998539466267871, 67.470989500619254 ] } },
{ "type": "Feature", "properties": { "cases": 14.0, "name_ru": "Ленинградскаяобласть", "month": 14 }, "geometry": { "type": "Point", "coordinates": [ 31.709207150932414, 60.007255664012277 ] } },
{ "type": "Feature", "properties": { "cases": 14.0, "name_ru": "РеспубликаКрым", "month": 10 }, "geometry": { "type": "Point", "coordinates": [ 34.365750302304733, 45.325326226890077 ] } },
{ "type": "Feature", "properties": { "cases": 14.0, "name_ru": "РеспубликаСаха(Якутия)", "month": 9 }, "geometry": { "type": "Point", "coordinates": [ 130.109851382516553, 66.182118500879639 ] } },
{ "type": "Feature", "properties": { "cases": 14.0, "name_ru": "РеспубликаСаха(Якутия)", "month": 10 }, "geometry": { "type": "Point", "coordinates": [ 130.109851382516553, 66.182118500879639 ] } },
{ "type": "Feature", "properties": { "cases": 14.0, "name_ru": "РеспубликаСаха(Якутия)", "month": 11 }, "geometry": { "type": "Point", "coordinates": [ 130.109851382516553, 66.182118500879639 ] } },
{ "type": "Feature", "properties": { "cases": 14.0, "name_ru": "РеспубликаТатарстан", "month": 11 }, "geometry": { "type": "Point", "coordinates": [ 50.911599165160609, 55.359286667923655 ] } },
{ "type": "Feature", "properties": { "cases": 14.0, "name_ru": "РеспубликаТатарстан", "month": 12 }, "geometry": { "type": "Point", "coordinates": [ 50.911599165160609, 55.359286667923655 ] } },
{ "type": "Feature", "properties": { "cases": 14.0, "name_ru": "РеспубликаТатарстан", "month": 13 }, "geometry": { "type": "Point", "coordinates": [ 50.911599165160609, 55.359286667923655 ] } },
{ "type": "Feature", "properties": { "cases": 14.0, "name_ru": "Самарскаяобласть", "month": 10 }, "geometry": { "type": "Point", "coordinates": [ 50.468913359104327, 53.279986967229924 ] } },
{ "type": "Feature", "properties": { "cases": 14.0, "name_ru": "Самарскаяобласть", "month": 11 }, "geometry": { "type": "Point", "coordinates": [ 50.468913359104327, 53.279986967229924 ] } },
{ "type": "Feature", "properties": { "cases": 14.0, "name_ru": "Самарскаяобласть", "month": 12 }, "geometry": { "type": "Point", "coordinates": [ 50.468913359104327, 53.279986967229924 ] } },
{ "type": "Feature", "properties": { "cases": 14.0, "name_ru": "Самарскаяобласть", "month": 13 }, "geometry": { "type": "Point", "coordinates": [ 50.468913359104327, 53.279986967229924 ] } },
{ "type": "Feature", "properties": { "cases": 14.0, "name_ru": "Санкт-Петербург", "month": 2 }, "geometry": { "type": "Point", "coordinates": [ 30.186235412549767, 59.899024581648547 ] } },
{ "type": "Feature", "properties": { "cases": 14.0, "name_ru": "Челябинскаяобласть", "month": 13 }, "geometry": { "type": "Point", "coordinates": [ 60.390486642675604, 54.450379902463695 ] } },
{ "type": "Feature", "properties": { "cases": 14.0, "name_ru": "Челябинскаяобласть", "month": 14 }, "geometry": { "type": "Point", "coordinates": [ 60.390486642675604, 54.450379902463695 ] } },
{ "type": "Feature", "properties": { "cases": 137.0, "name_ru": "Москва", "month": 3 }, "geometry": { "type": "Point", "coordinates": [ 37.362445475776951, 55.499315019907002 ] } },
{ "type": "Feature", "properties": { "cases": 35.0, "name_ru": "Московскаяобласть", "month": 3 }, "geometry": { "type": "Point", "coordinates": [ 37.666151601855979, 55.666939030371552 ] } },
{ "type": "Feature", "properties": { "cases": 35.0, "name_ru": "Московскаяобласть", "month": 4 }, "geometry": { "type": "Point", "coordinates": [ 37.666151601855979, 55.666939030371552 ] } },
{ "type": "Feature", "properties": { "cases": 35.0, "name_ru": "Московскаяобласть", "month": 5 }, "geometry": { "type": "Point", "coordinates": [ 37.666151601855979, 55.666939030371552 ] } },
{ "type": "Feature", "properties": { "cases": 35.0, "name_ru": "Московскаяобласть", "month": 6 }, "geometry": { "type": "Point", "coordinates": [ 37.666151601855979, 55.666939030371552 ] } },
{ "type": "Feature", "properties": { "cases": 11.0, "name_ru": "Ивановскаяобласть", "month": 15 }, "geometry": { "type": "Point", "coordinates": [ 41.709304806409534, 57.016008071636662 ] } },
{ "type": "Feature", "properties": { "cases": 11.0, "name_ru": "Ивановскаяобласть", "month": 16 }, "geometry": { "type": "Point", "coordinates": [ 41.709304806409534, 57.016008071636662 ] } },
{ "type": "Feature", "properties": { "cases": 11.0, "name_ru": "Калининградскаяобласть", "month": 10 }, "geometry": { "type": "Point", "coordinates": [ 21.386649725974994, 54.719289317912541 ] } },
{ "type": "Feature", "properties": { "cases": 11.0, "name_ru": "Калининградскаяобласть", "month": 11 }, "geometry": { "type": "Point", "coordinates": [ 21.386649725974994, 54.719289317912541 ] } },
{ "type": "Feature", "properties": { "cases": 11.0, "name_ru": "Ленинградскаяобласть", "month": 13 }, "geometry": { "type": "Point", "coordinates": [ 31.709207150932414, 60.007255664012277 ] } },
{ "type": "Feature", "properties": { "cases": 11.0, "name_ru": "Липецкаяобласть", "month": 14 }, "geometry": { "type": "Point", "coordinates": [ 39.135426015731078, 52.645878641028062 ] } },
{ "type": "Feature", "properties": { "cases": 11.0, "name_ru": "Мурманскаяобласть", "month": 14 }, "geometry": { "type": "Point", "coordinates": [ 34.59973759323772, 67.814617070277819 ] } },
{ "type": "Feature", "properties": { "cases": 11.0, "name_ru": "Мурманскаяобласть", "month": 15 }, "geometry": { "type": "Point", "coordinates": [ 34.59973759323772, 67.814617070277819 ] } },
{ "type": "Feature", "properties": { "cases": 11.0, "name_ru": "Нижегородскаяобласть", "month": 10 }, "geometry": { "type": "Point", "coordinates": [ 44.639346614989805, 56.291885409958624 ] } },
{ "type": "Feature", "properties": { "cases": 11.0, "name_ru": "Нижегородскаяобласть", "month": 11 }, "geometry": { "type": "Point", "coordinates": [ 44.639346614989805, 56.291885409958624 ] } },
{ "type": "Feature", "properties": { "cases": 11.0, "name_ru": "Нижегородскаяобласть", "month": 12 }, "geometry": { "type": "Point", "coordinates": [ 44.639346614989805, 56.291885409958624 ] } },
{ "type": "Feature", "properties": { "cases": 11.0, "name_ru": "Пермскийкрай", "month": 11 }, "geometry": { "type": "Point", "coordinates": [ 56.225532548350479, 59.116299055761317 ] } },
{ "type": "Feature", "properties": { "cases": 11.0, "name_ru": "Пермскийкрай", "month": 12 }, "geometry": { "type": "Point", "coordinates": [ 56.225532548350479, 59.116299055761317 ] } },
{ "type": "Feature", "properties": { "cases": 11.0, "name_ru": "РеспубликаТатарстан", "month": 10 }, "geometry": { "type": "Point", "coordinates": [ 50.911599165160609, 55.359286667923655 ] } },
{ "type": "Feature", "properties": { "cases": 11.0, "name_ru": "Ставропольскийкрай", "month": 16 }, "geometry": { "type": "Point", "coordinates": [ 43.35164379866783, 44.952534638070283 ] } },
{ "type": "Feature", "properties": { "cases": 11.0, "name_ru": "Тульскаяобласть", "month": 11 }, "geometry": { "type": "Point", "coordinates": [ 37.558287822570264, 53.893618744970098 ] } },
{ "type": "Feature", "properties": { "cases": 11.0, "name_ru": "Тульскаяобласть", "month": 12 }, "geometry": { "type": "Point", "coordinates": [ 37.558287822570264, 53.893618744970098 ] } },
{ "type": "Feature", "properties": { "cases": 4.0, "name_ru": "Красноярскийкрай", "month": 2 }, "geometry": { "type": "Point", "coordinates": [ 95.998539466267871, 67.470989500619254 ] } },
{ "type": "Feature", "properties": { "cases": 4.0, "name_ru": "Красноярскийкрай", "month": 3 }, "geometry": { "type": "Point", "coordinates": [ 95.998539466267871, 67.470989500619254 ] } },
{ "type": "Feature", "properties": { "cases": 262.0, "name_ru": "Москва", "month": 5 }, "geometry": { "type": "Point", "coordinates": [ 37.362445475776951, 55.499315019907002 ] } },
{ "type": "Feature", "properties": { "cases": 4.0, "name_ru": "Новосибирскаяобласть", "month": 3 }, "geometry": { "type": "Point", "coordinates": [ 79.758095846238163, 55.280746103662807 ] } },
{ "type": "Feature", "properties": { "cases": 4.0, "name_ru": "Новосибирскаяобласть", "month": 4 }, "geometry": { "type": "Point", "coordinates": [ 79.758095846238163, 55.280746103662807 ] } },
{ "type": "Feature", "properties": { "cases": 4.0, "name_ru": "Новосибирскаяобласть", "month": 5 }, "geometry": { "type": "Point", "coordinates": [ 79.758095846238163, 55.280746103662807 ] } },
{ "type": "Feature", "properties": { "cases": 4.0, "name_ru": "Новосибирскаяобласть", "month": 6 }, "geometry": { "type": "Point", "coordinates": [ 79.758095846238163, 55.280746103662807 ] } },
{ "type": "Feature", "properties": { "cases": 4.0, "name_ru": "Новосибирскаяобласть", "month": 7 }, "geometry": { "type": "Point", "coordinates": [ 79.758095846238163, 55.280746103662807 ] } },
{ "type": "Feature", "properties": { "cases": 4.0, "name_ru": "Новосибирскаяобласть", "month": 8 }, "geometry": { "type": "Point", "coordinates": [ 79.758095846238163, 55.280746103662807 ] } },
{ "type": "Feature", "properties": { "cases": 4.0, "name_ru": "Оренбургскаяобласть", "month": 8 }, "geometry": { "type": "Point", "coordinates": [ 55.623732617321409, 51.991483802685075 ] } },
{ "type": "Feature", "properties": { "cases": 4.0, "name_ru": "Оренбургскаяобласть", "month": 9 }, "geometry": { "type": "Point", "coordinates": [ 55.623732617321409, 51.991483802685075 ] } },
{ "type": "Feature", "properties": { "cases": 4.0, "name_ru": "Оренбургскаяобласть", "month": 10 }, "geometry": { "type": "Point", "coordinates": [ 55.623732617321409, 51.991483802685075 ] } },
{ "type": "Feature", "properties": { "cases": 4.0, "name_ru": "РеспубликаБашкортостан", "month": 8 }, "geometry": { "type": "Point", "coordinates": [ 56.513672227916707, 54.273768743977421 ] } },
{ "type": "Feature", "properties": { "cases": 4.0, "name_ru": "РеспубликаБашкортостан", "month": 9 }, "geometry": { "type": "Point", "coordinates": [ 56.513672227916707, 54.273768743977421 ] } },
{ "type": "Feature", "properties": { "cases": 4.0, "name_ru": "РеспубликаБашкортостан", "month": 10 }, "geometry": { "type": "Point", "coordinates": [ 56.513672227916707, 54.273768743977421 ] } },
{ "type": "Feature", "properties": { "cases": 4.0, "name_ru": "РеспубликаБашкортостан", "month": 11 }, "geometry": { "type": "Point", "coordinates": [ 56.513672227916707, 54.273768743977421 ] } },
{ "type": "Feature", "properties": { "cases": 4.0, "name_ru": "РеспубликаДагестан", "month": 13 }, "geometry": { "type": "Point", "coordinates": [ 46.870781419485624, 43.016812411979906 ] } },
{ "type": "Feature", "properties": { "cases": 4.0, "name_ru": "Саратовскаяобласть", "month": 13 }, "geometry": { "type": "Point", "coordinates": [ 46.792941152061971, 51.583357055722608 ] } },
{ "type": "Feature", "properties": { "cases": 4.0, "name_ru": "Саратовскаяобласть", "month": 14 }, "geometry": { "type": "Point", "coordinates": [ 46.792941152061971, 51.583357055722608 ] } },
{ "type": "Feature", "properties": { "cases": 1613.0, "name_ru": "Москва", "month": 13 }, "geometry": { "type": "Point", "coordinates": [ 37.362445475776951, 55.499315019907002 ] } },
{ "type": "Feature", "properties": { "cases": 21.0, "name_ru": "Санкт-Петербург", "month": 6 }, "geometry": { "type": "Point", "coordinates": [ 30.186235412549767, 59.899024581648547 ] } },
{ "type": "Feature", "properties": { "cases": 21.0, "name_ru": "Санкт-Петербург", "month": 7 }, "geometry": { "type": "Point", "coordinates": [ 30.186235412549767, 59.899024581648547 ] } },
{ "type": "Feature", "properties": { "cases": 21.0, "name_ru": "Челябинскаяобласть", "month": 15 }, "geometry": { "type": "Point", "coordinates": [ 60.390486642675604, 54.450379902463695 ] } },
{ "type": "Feature", "properties": { "cases": 21.0, "name_ru": "Челябинскаяобласть", "month": 16 }, "geometry": { "type": "Point", "coordinates": [ 60.390486642675604, 54.450379902463695 ] } },
{ "type": "Feature", "properties": { "cases": 41.0, "name_ru": "Московскаяобласть", "month": 7 }, "geometry": { "type": "Point", "coordinates": [ 37.666151601855979, 55.666939030371552 ] } },
{ "type": "Feature", "properties": { "cases": 41.0, "name_ru": "Московскаяобласть", "month": 8 }, "geometry": { "type": "Point", "coordinates": [ 37.666151601855979, 55.666939030371552 ] } },
{ "type": "Feature", "properties": { "cases": 410.0, "name_ru": "Москва", "month": 7 }, "geometry": { "type": "Point", "coordinates": [ 37.362445475776951, 55.499315019907002 ] } },
{ "type": "Feature", "properties": { "cases": 30.0, "name_ru": "РеспубликаБурятия", "month": 16 }, "geometry": { "type": "Point", "coordinates": [ 109.478140742109986, 53.546571553948844 ] } },
{ "type": "Feature", "properties": { "cases": 12.0, "name_ru": "Вологодскаяобласть", "month": 16 }, "geometry": { "type": "Point", "coordinates": [ 40.499875839562087, 59.967634204163154 ] } },
{ "type": "Feature", "properties": { "cases": 12.0, "name_ru": "Воронежскаяобласть", "month": 15 }, "geometry": { "type": "Point", "coordinates": [ 40.217910960847362, 50.970836360511321 ] } },
{ "type": "Feature", "properties": { "cases": 12.0, "name_ru": "Воронежскаяобласть", "month": 16 }, "geometry": { "type": "Point", "coordinates": [ 40.217910960847362, 50.970836360511321 ] } },
{ "type": "Feature", "properties": { "cases": 12.0, "name_ru": "Калининградскаяобласть", "month": 12 }, "geometry": { "type": "Point", "coordinates": [ 21.386649725974994, 54.719289317912541 ] } },
{ "type": "Feature", "properties": { "cases": 12.0, "name_ru": "Калининградскаяобласть", "month": 13 }, "geometry": { "type": "Point", "coordinates": [ 21.386649725974994, 54.719289317912541 ] } },
{ "type": "Feature", "properties": { "cases": 12.0, "name_ru": "Калининградскаяобласть", "month": 14 }, "geometry": { "type": "Point", "coordinates": [ 21.386649725974994, 54.719289317912541 ] } },
{ "type": "Feature", "properties": { "cases": 12.0, "name_ru": "Кировскаяобласть", "month": 13 }, "geometry": { "type": "Point", "coordinates": [ 49.830485442775995, 58.685751707728116 ] } },
{ "type": "Feature", "properties": { "cases": 12.0, "name_ru": "Кировскаяобласть", "month": 14 }, "geometry": { "type": "Point", "coordinates": [ 49.830485442775995, 58.685751707728116 ] } },
{ "type": "Feature", "properties": { "cases": 12.0, "name_ru": "Кировскаяобласть", "month": 15 }, "geometry": { "type": "Point", "coordinates": [ 49.830485442775995, 58.685751707728116 ] } },
{ "type": "Feature", "properties": { "cases": 12.0, "name_ru": "Кировскаяобласть", "month": 16 }, "geometry": { "type": "Point", "coordinates": [ 49.830485442775995, 58.685751707728116 ] } },
{ "type": "Feature", "properties": { "cases": 12.0, "name_ru": "Красноярскийкрай", "month": 11 }, "geometry": { "type": "Point", "coordinates": [ 95.998539466267871, 67.470989500619254 ] } },
{ "type": "Feature", "properties": { "cases": 12.0, "name_ru": "Красноярскийкрай", "month": 12 }, "geometry": { "type": "Point", "coordinates": [ 95.998539466267871, 67.470989500619254 ] } },
{ "type": "Feature", "properties": { "cases": 12.0, "name_ru": "Московскаяобласть", "month": 0 }, "geometry": { "type": "Point", "coordinates": [ 37.666151601855979, 55.666939030371552 ] } },
{ "type": "Feature", "properties": { "cases": 12.0, "name_ru": "Нижегородскаяобласть", "month": 13 }, "geometry": { "type": "Point", "coordinates": [ 44.639346614989805, 56.291885409958624 ] } },
{ "type": "Feature", "properties": { "cases": 12.0, "name_ru": "Нижегородскаяобласть", "month": 14 }, "geometry": { "type": "Point", "coordinates": [ 44.639346614989805, 56.291885409958624 ] } },
{ "type": "Feature", "properties": { "cases": 12.0, "name_ru": "Оренбургскаяобласть", "month": 16 }, "geometry": { "type": "Point", "coordinates": [ 55.623732617321409, 51.991483802685075 ] } },
{ "type": "Feature", "properties": { "cases": 12.0, "name_ru": "Пензенскаяобласть", "month": 14 }, "geometry": { "type": "Point", "coordinates": [ 44.637723566656831, 53.193004644594396 ] } },
{ "type": "Feature", "properties": { "cases": 12.0, "name_ru": "Самарскаяобласть", "month": 9 }, "geometry": { "type": "Point", "coordinates": [ 50.468913359104327, 53.279986967229924 ] } },
{ "type": "Feature", "properties": { "cases": 12.0, "name_ru": "Тульскаяобласть", "month": 13 }, "geometry": { "type": "Point", "coordinates": [ 37.558287822570264, 53.893618744970098 ] } },
{ "type": "Feature", "properties": { "cases": 12.0, "name_ru": "Тульскаяобласть", "month": 14 }, "geometry": { "type": "Point", "coordinates": [ 37.558287822570264, 53.893618744970098 ] } },
{ "type": "Feature", "properties": { "cases": 12.0, "name_ru": "Челябинскаяобласть", "month": 12 }, "geometry": { "type": "Point", "coordinates": [ 60.390486642675604, 54.450379902463695 ] } },
{ "type": "Feature", "properties": { "cases": 9.0, "name_ru": "Вологодскаяобласть", "month": 15 }, "geometry": { "type": "Point", "coordinates": [ 40.499875839562087, 59.967634204163154 ] } },
{ "type": "Feature", "properties": { "cases": 9.0, "name_ru": "Ивановскаяобласть", "month": 13 }, "geometry": { "type": "Point", "coordinates": [ 41.709304806409534, 57.016008071636662 ] } },
{ "type": "Feature", "properties": { "cases": 9.0, "name_ru": "Ивановскаяобласть", "month": 14 }, "geometry": { "type": "Point", "coordinates": [ 41.709304806409534, 57.016008071636662 ] } },
{ "type": "Feature", "properties": { "cases": 9.0, "name_ru": "Кировскаяобласть", "month": 12 }, "geometry": { "type": "Point", "coordinates": [ 49.830485442775995, 58.685751707728116 ] } },
{ "type": "Feature", "properties": { "cases": 9.0, "name_ru": "Краснодарскийкрай", "month": 8 }, "geometry": { "type": "Point", "coordinates": [ 39.465728558210685, 45.260490148450955 ] } },
{ "type": "Feature", "properties": { "cases": 9.0, "name_ru": "Краснодарскийкрай", "month": 9 }, "geometry": { "type": "Point", "coordinates": [ 39.465728558210685, 45.260490148450955 ] } },
{ "type": "Feature", "properties": { "cases": 9.0, "name_ru": "Краснодарскийкрай", "month": 10 }, "geometry": { "type": "Point", "coordinates": [ 39.465728558210685, 45.260490148450955 ] } },
{ "type": "Feature", "properties": { "cases": 9.0, "name_ru": "Ленинградскаяобласть", "month": 12 }, "geometry": { "type": "Point", "coordinates": [ 31.709207150932414, 60.007255664012277 ] } },
{ "type": "Feature", "properties": { "cases": 9.0, "name_ru": "Липецкаяобласть", "month": 11 }, "geometry": { "type": "Point", "coordinates": [ 39.135426015731078, 52.645878641028062 ] } },
{ "type": "Feature", "properties": { "cases": 9.0, "name_ru": "Новосибирскаяобласть", "month": 13 }, "geometry": { "type": "Point", "coordinates": [ 79.758095846238163, 55.280746103662807 ] } },
{ "type": "Feature", "properties": { "cases": 9.0, "name_ru": "Новосибирскаяобласть", "month": 14 }, "geometry": { "type": "Point", "coordinates": [ 79.758095846238163, 55.280746103662807 ] } },
{ "type": "Feature", "properties": { "cases": 9.0, "name_ru": "Самарскаяобласть", "month": 3 }, "geometry": { "type": "Point", "coordinates": [ 50.468913359104327, 53.279986967229924 ] } },
{ "type": "Feature", "properties": { "cases": 9.0, "name_ru": "Самарскаяобласть", "month": 4 }, "geometry": { "type": "Point", "coordinates": [ 50.468913359104327, 53.279986967229924 ] } },
{ "type": "Feature", "properties": { "cases": 9.0, "name_ru": "Самарскаяобласть", "month": 5 }, "geometry": { "type": "Point", "coordinates": [ 50.468913359104327, 53.279986967229924 ] } },
{ "type": "Feature", "properties": { "cases": 9.0, "name_ru": "Самарскаяобласть", "month": 6 }, "geometry": { "type": "Point", "coordinates": [ 50.468913359104327, 53.279986967229924 ] } },
{ "type": "Feature", "properties": { "cases": 9.0, "name_ru": "Санкт-Петербург", "month": 0 }, "geometry": { "type": "Point", "coordinates": [ 30.186235412549767, 59.899024581648547 ] } },
{ "type": "Feature", "properties": { "cases": 9.0, "name_ru": "Свердловскаяобласть", "month": 4 }, "geometry": { "type": "Point", "coordinates": [ 61.530809127245391, 58.594500499194439 ] } },
{ "type": "Feature", "properties": { "cases": 9.0, "name_ru": "Свердловскаяобласть", "month": 5 }, "geometry": { "type": "Point", "coordinates": [ 61.530809127245391, 58.594500499194439 ] } },
{ "type": "Feature", "properties": { "cases": 9.0, "name_ru": "Свердловскаяобласть", "month": 6 }, "geometry": { "type": "Point", "coordinates": [ 61.530809127245391, 58.594500499194439 ] } },
{ "type": "Feature", "properties": { "cases": 9.0, "name_ru": "Челябинскаяобласть", "month": 11 }, "geometry": { "type": "Point", "coordinates": [ 60.390486642675604, 54.450379902463695 ] } },
{ "type": "Feature", "properties": { "cases": 9.0, "name_ru": "ЧеченскаяРеспублика", "month": 12 }, "geometry": { "type": "Point", "coordinates": [ 45.74164439305715, 43.30218552100024 ] } },
{ "type": "Feature", "properties": { "cases": 9.0, "name_ru": "ЧеченскаяРеспублика", "month": 13 }, "geometry": { "type": "Point", "coordinates": [ 45.74164439305715, 43.30218552100024 ] } },
{ "type": "Feature", "properties": { "cases": 9.0, "name_ru": "ЧеченскаяРеспублика", "month": 14 }, "geometry": { "type": "Point", "coordinates": [ 45.74164439305715, 43.30218552100024 ] } },
{ "type": "Feature", "properties": { "cases": 191.0, "name_ru": "Москва", "month": 4 }, "geometry": { "type": "Point", "coordinates": [ 37.362445475776951, 55.499315019907002 ] } },
{ "type": "Feature", "properties": { "cases": 7.0, "name_ru": "Ивановскаяобласть", "month": 11 }, "geometry": { "type": "Point", "coordinates": [ 41.709304806409534, 57.016008071636662 ] } },
{ "type": "Feature", "properties": { "cases": 7.0, "name_ru": "Ивановскаяобласть", "month": 12 }, "geometry": { "type": "Point", "coordinates": [ 41.709304806409534, 57.016008071636662 ] } },
{ "type": "Feature", "properties": { "cases": 7.0, "name_ru": "Калининградскаяобласть", "month": 3 }, "geometry": { "type": "Point", "coordinates": [ 21.386649725974994, 54.719289317912541 ] } },
{ "type": "Feature", "properties": { "cases": 7.0, "name_ru": "Калининградскаяобласть", "month": 4 }, "geometry": { "type": "Point", "coordinates": [ 21.386649725974994, 54.719289317912541 ] } },
{ "type": "Feature", "properties": { "cases": 7.0, "name_ru": "Калининградскаяобласть", "month": 5 }, "geometry": { "type": "Point", "coordinates": [ 21.386649725974994, 54.719289317912541 ] } },
{ "type": "Feature", "properties": { "cases": 7.0, "name_ru": "Калининградскаяобласть", "month": 6 }, "geometry": { "type": "Point", "coordinates": [ 21.386649725974994, 54.719289317912541 ] } },
{ "type": "Feature", "properties": { "cases": 7.0, "name_ru": "Кировскаяобласть", "month": 5 }, "geometry": { "type": "Point", "coordinates": [ 49.830485442775995, 58.685751707728116 ] } },
{ "type": "Feature", "properties": { "cases": 7.0, "name_ru": "Кировскаяобласть", "month": 6 }, "geometry": { "type": "Point", "coordinates": [ 49.830485442775995, 58.685751707728116 ] } },
{ "type": "Feature", "properties": { "cases": 7.0, "name_ru": "Кировскаяобласть", "month": 7 }, "geometry": { "type": "Point", "coordinates": [ 49.830485442775995, 58.685751707728116 ] } },
{ "type": "Feature", "properties": { "cases": 7.0, "name_ru": "Кировскаяобласть", "month": 8 }, "geometry": { "type": "Point", "coordinates": [ 49.830485442775995, 58.685751707728116 ] } },
{ "type": "Feature", "properties": { "cases": 7.0, "name_ru": "Кировскаяобласть", "month": 9 }, "geometry": { "type": "Point", "coordinates": [ 49.830485442775995, 58.685751707728116 ] } },
{ "type": "Feature", "properties": { "cases": 7.0, "name_ru": "Ленинградскаяобласть", "month": 11 }, "geometry": { "type": "Point", "coordinates": [ 31.709207150932414, 60.007255664012277 ] } },
{ "type": "Feature", "properties": { "cases": 112.0, "name_ru": "Московскаяобласть", "month": 11 }, "geometry": { "type": "Point", "coordinates": [ 37.666151601855979, 55.666939030371552 ] } },
{ "type": "Feature", "properties": { "cases": 7.0, "name_ru": "Нижегородскаяобласть", "month": 3 }, "geometry": { "type": "Point", "coordinates": [ 44.639346614989805, 56.291885409958624 ] } },
{ "type": "Feature", "properties": { "cases": 7.0, "name_ru": "Нижегородскаяобласть", "month": 4 }, "geometry": { "type": "Point", "coordinates": [ 44.639346614989805, 56.291885409958624 ] } },
{ "type": "Feature", "properties": { "cases": 7.0, "name_ru": "Нижегородскаяобласть", "month": 5 }, "geometry": { "type": "Point", "coordinates": [ 44.639346614989805, 56.291885409958624 ] } },
{ "type": "Feature", "properties": { "cases": 7.0, "name_ru": "Нижегородскаяобласть", "month": 6 }, "geometry": { "type": "Point", "coordinates": [ 44.639346614989805, 56.291885409958624 ] } },
{ "type": "Feature", "properties": { "cases": 7.0, "name_ru": "Новосибирскаяобласть", "month": 11 }, "geometry": { "type": "Point", "coordinates": [ 79.758095846238163, 55.280746103662807 ] } },
{ "type": "Feature", "properties": { "cases": 7.0, "name_ru": "Оренбургскаяобласть", "month": 13 }, "geometry": { "type": "Point", "coordinates": [ 55.623732617321409, 51.991483802685075 ] } },
{ "type": "Feature", "properties": { "cases": 7.0, "name_ru": "Оренбургскаяобласть", "month": 14 }, "geometry": { "type": "Point", "coordinates": [ 55.623732617321409, 51.991483802685075 ] } },
{ "type": "Feature", "properties": { "cases": 7.0, "name_ru": "Оренбургскаяобласть", "month": 15 }, "geometry": { "type": "Point", "coordinates": [ 55.623732617321409, 51.991483802685075 ] } },
{ "type": "Feature", "properties": { "cases": 7.0, "name_ru": "Пензенскаяобласть", "month": 12 }, "geometry": { "type": "Point", "coordinates": [ 44.637723566656831, 53.193004644594396 ] } },
{ "type": "Feature", "properties": { "cases": 7.0, "name_ru": "Пензенскаяобласть", "month": 13 }, "geometry": { "type": "Point", "coordinates": [ 44.637723566656831, 53.193004644594396 ] } },
{ "type": "Feature", "properties": { "cases": 7.0, "name_ru": "РеспубликаБашкортостан", "month": 14 }, "geometry": { "type": "Point", "coordinates": [ 56.513672227916707, 54.273768743977421 ] } },
{ "type": "Feature", "properties": { "cases": 7.0, "name_ru": "РеспубликаКоми", "month": 12 }, "geometry": { "type": "Point", "coordinates": [ 54.783968874283417, 64.128449926011754 ] } },
{ "type": "Feature", "properties": { "cases": 7.0, "name_ru": "РеспубликаКрым", "month": 8 }, "geometry": { "type": "Point", "coordinates": [ 34.365750302304733, 45.325326226890077 ] } },
{ "type": "Feature", "properties": { "cases": 7.0, "name_ru": "РеспубликаКрым", "month": 9 }, "geometry": { "type": "Point", "coordinates": [ 34.365750302304733, 45.325326226890077 ] } },
{ "type": "Feature", "properties": { "cases": 7.0, "name_ru": "РеспубликаСаха(Якутия)", "month": 3 }, "geometry": { "type": "Point", "coordinates": [ 130.109851382516553, 66.182118500879639 ] } },
{ "type": "Feature", "properties": { "cases": 7.0, "name_ru": "РеспубликаСаха(Якутия)", "month": 4 }, "geometry": { "type": "Point", "coordinates": [ 130.109851382516553, 66.182118500879639 ] } },
{ "type": "Feature", "properties": { "cases": 7.0, "name_ru": "РеспубликаСаха(Якутия)", "month": 5 }, "geometry": { "type": "Point", "coordinates": [ 130.109851382516553, 66.182118500879639 ] } },
{ "type": "Feature", "properties": { "cases": 7.0, "name_ru": "РеспубликаСаха(Якутия)", "month": 6 }, "geometry": { "type": "Point", "coordinates": [ 130.109851382516553, 66.182118500879639 ] } },
{ "type": "Feature", "properties": { "cases": 7.0, "name_ru": "РеспубликаСаха(Якутия)", "month": 7 }, "geometry": { "type": "Point", "coordinates": [ 130.109851382516553, 66.182118500879639 ] } },
{ "type": "Feature", "properties": { "cases": 7.0, "name_ru": "РеспубликаТатарстан", "month": 7 }, "geometry": { "type": "Point", "coordinates": [ 50.911599165160609, 55.359286667923655 ] } },
{ "type": "Feature", "properties": { "cases": 7.0, "name_ru": "РеспубликаТатарстан", "month": 8 }, "geometry": { "type": "Point", "coordinates": [ 50.911599165160609, 55.359286667923655 ] } },
{ "type": "Feature", "properties": { "cases": 7.0, "name_ru": "Тульскаяобласть", "month": 8 }, "geometry": { "type": "Point", "coordinates": [ 37.558287822570264, 53.893618744970098 ] } },
{ "type": "Feature", "properties": { "cases": 7.0, "name_ru": "Тульскаяобласть", "month": 9 }, "geometry": { "type": "Point", "coordinates": [ 37.558287822570264, 53.893618744970098 ] } },
{ "type": "Feature", "properties": { "cases": 17.0, "name_ru": "Краснодарскийкрай", "month": 11 }, "geometry": { "type": "Point", "coordinates": [ 39.465728558210685, 45.260490148450955 ] } },
{ "type": "Feature", "properties": { "cases": 17.0, "name_ru": "Краснодарскийкрай", "month": 12 }, "geometry": { "type": "Point", "coordinates": [ 39.465728558210685, 45.260490148450955 ] } },
{ "type": "Feature", "properties": { "cases": 17.0, "name_ru": "Краснодарскийкрай", "month": 13 }, "geometry": { "type": "Point", "coordinates": [ 39.465728558210685, 45.260490148450955 ] } },
{ "type": "Feature", "properties": { "cases": 17.0, "name_ru": "Краснодарскийкрай", "month": 14 }, "geometry": { "type": "Point", "coordinates": [ 39.465728558210685, 45.260490148450955 ] } },
{ "type": "Feature", "properties": { "cases": 17.0, "name_ru": "Московскаяобласть", "month": 1 }, "geometry": { "type": "Point", "coordinates": [ 37.666151601855979, 55.666939030371552 ] } },
{ "type": "Feature", "properties": { "cases": 17.0, "name_ru": "Самарскаяобласть", "month": 16 }, "geometry": { "type": "Point", "coordinates": [ 50.468913359104327, 53.279986967229924 ] } },
{ "type": "Feature", "properties": { "cases": 17.0, "name_ru": "Тульскаяобласть", "month": 15 }, "geometry": { "type": "Point", "coordinates": [ 37.558287822570264, 53.893618744970098 ] } },
{ "type": "Feature", "properties": { "cases": 17.0, "name_ru": "Тульскаяобласть", "month": 16 }, "geometry": { "type": "Point", "coordinates": [ 37.558287822570264, 53.893618744970098 ] } },
{ "type": "Feature", "properties": { "cases": 2.0, "name_ru": "Вологодскаяобласть", "month": 13 }, "geometry": { "type": "Point", "coordinates": [ 40.499875839562087, 59.967634204163154 ] } },
{ "type": "Feature", "properties": { "cases": 2.0, "name_ru": "Вологодскаяобласть", "month": 14 }, "geometry": { "type": "Point", "coordinates": [ 40.499875839562087, 59.967634204163154 ] } },
{ "type": "Feature", "properties": { "cases": 2.0, "name_ru": "Воронежскаяобласть", "month": 2 }, "geometry": { "type": "Point", "coordinates": [ 40.217910960847362, 50.970836360511321 ] } },
{ "type": "Feature", "properties": { "cases": 2.0, "name_ru": "Воронежскаяобласть", "month": 3 }, "geometry": { "type": "Point", "coordinates": [ 40.217910960847362, 50.970836360511321 ] } },
{ "type": "Feature", "properties": { "cases": 2.0, "name_ru": "Воронежскаяобласть", "month": 4 }, "geometry": { "type": "Point", "coordinates": [ 40.217910960847362, 50.970836360511321 ] } },
{ "type": "Feature", "properties": { "cases": 2.0, "name_ru": "Воронежскаяобласть", "month": 5 }, "geometry": { "type": "Point", "coordinates": [ 40.217910960847362, 50.970836360511321 ] } },
{ "type": "Feature", "properties": { "cases": 2.0, "name_ru": "Воронежскаяобласть", "month": 6 }, "geometry": { "type": "Point", "coordinates": [ 40.217910960847362, 50.970836360511321 ] } },
{ "type": "Feature", "properties": { "cases": 2.0, "name_ru": "Ивановскаяобласть", "month": 10 }, "geometry": { "type": "Point", "coordinates": [ 41.709304806409534, 57.016008071636662 ] } },
{ "type": "Feature", "properties": { "cases": 131.0, "name_ru": "Москва", "month": 2 }, "geometry": { "type": "Point", "coordinates": [ 37.362445475776951, 55.499315019907002 ] } },
{ "type": "Feature", "properties": { "cases": 2.0, "name_ru": "Нижегородскаяобласть", "month": 0 }, "geometry": { "type": "Point", "coordinates": [ 44.639346614989805, 56.291885409958624 ] } },
{ "type": "Feature", "properties": { "cases": 2.0, "name_ru": "Новосибирскаяобласть", "month": 2 }, "geometry": { "type": "Point", "coordinates": [ 79.758095846238163, 55.280746103662807 ] } },
{ "type": "Feature", "properties": { "cases": 2.0, "name_ru": "Пензенскаяобласть", "month": 8 }, "geometry": { "type": "Point", "coordinates": [ 44.637723566656831, 53.193004644594396 ] } },
{ "type": "Feature", "properties": { "cases": 2.0, "name_ru": "Пензенскаяобласть", "month": 9 }, "geometry": { "type": "Point", "coordinates": [ 44.637723566656831, 53.193004644594396 ] } },
{ "type": "Feature", "properties": { "cases": 2.0, "name_ru": "Пензенскаяобласть", "month": 10 }, "geometry": { "type": "Point", "coordinates": [ 44.637723566656831, 53.193004644594396 ] } },
{ "type": "Feature", "properties": { "cases": 2.0, "name_ru": "Пензенскаяобласть", "month": 11 }, "geometry": { "type": "Point", "coordinates": [ 44.637723566656831, 53.193004644594396 ] } },
{ "type": "Feature", "properties": { "cases": 2.0, "name_ru": "Пермскийкрай", "month": 0 }, "geometry": { "type": "Point", "coordinates": [ 56.225532548350479, 59.116299055761317 ] } },
{ "type": "Feature", "properties": { "cases": 2.0, "name_ru": "Пермскийкрай", "month": 1 }, "geometry": { "type": "Point", "coordinates": [ 56.225532548350479, 59.116299055761317 ] } },
{ "type": "Feature", "properties": { "cases": 2.0, "name_ru": "РеспубликаБурятия", "month": 9 }, "geometry": { "type": "Point", "coordinates": [ 109.478140742109986, 53.546571553948844 ] } },
{ "type": "Feature", "properties": { "cases": 2.0, "name_ru": "РеспубликаБурятия", "month": 10 }, "geometry": { "type": "Point", "coordinates": [ 109.478140742109986, 53.546571553948844 ] } },
{ "type": "Feature", "properties": { "cases": 2.0, "name_ru": "Саратовскаяобласть", "month": 11 }, "geometry": { "type": "Point", "coordinates": [ 46.792941152061971, 51.583357055722608 ] } },
{ "type": "Feature", "properties": { "cases": 2.0, "name_ru": "Саратовскаяобласть", "month": 12 }, "geometry": { "type": "Point", "coordinates": [ 46.792941152061971, 51.583357055722608 ] } },
{ "type": "Feature", "properties": { "cases": 33.0, "name_ru": "Свердловскаяобласть", "month": 14 }, "geometry": { "type": "Point", "coordinates": [ 61.530809127245391, 58.594500499194439 ] } },
{ "type": "Feature", "properties": { "cases": 33.0, "name_ru": "Свердловскаяобласть", "month": 15 }, "geometry": { "type": "Point", "coordinates": [ 61.530809127245391, 58.594500499194439 ] } },
{ "type": "Feature", "properties": { "cases": 2.0, "name_ru": "Ставропольскийкрай", "month": 8 }, "geometry": { "type": "Point", "coordinates": [ 43.35164379866783, 44.952534638070283 ] } },
{ "type": "Feature", "properties": { "cases": 2.0, "name_ru": "Челябинскаяобласть", "month": 8 }, "geometry": { "type": "Point", "coordinates": [ 60.390486642675604, 54.450379902463695 ] } },
{ "type": "Feature", "properties": { "cases": 26.0, "name_ru": "Санкт-Петербург", "month": 8 }, "geometry": { "type": "Point", "coordinates": [ 30.186235412549767, 59.899024581648547 ] } },
{ "type": "Feature", "properties": { "cases": 26.0, "name_ru": "Санкт-Петербург", "month": 9 }, "geometry": { "type": "Point", "coordinates": [ 30.186235412549767, 59.899024581648547 ] } },
{ "type": "Feature", "properties": { "cases": 125.0, "name_ru": "Санкт-Петербург", "month": 14 }, "geometry": { "type": "Point", "coordinates": [ 30.186235412549767, 59.899024581648547 ] } },
{ "type": "Feature", "properties": { "cases": 20.0, "name_ru": "Красноярскийкрай", "month": 15 }, "geometry": { "type": "Point", "coordinates": [ 95.998539466267871, 67.470989500619254 ] } },
{ "type": "Feature", "properties": { "cases": 20.0, "name_ru": "Ленинградскаяобласть", "month": 15 }, "geometry": { "type": "Point", "coordinates": [ 31.709207150932414, 60.007255664012277 ] } },
{ "type": "Feature", "properties": { "cases": 20.0, "name_ru": "Пермскийкрай", "month": 16 }, "geometry": { "type": "Point", "coordinates": [ 56.225532548350479, 59.116299055761317 ] } },
{ "type": "Feature", "properties": { "cases": 20.0, "name_ru": "Свердловскаяобласть", "month": 9 }, "geometry": { "type": "Point", "coordinates": [ 61.530809127245391, 58.594500499194439 ] } },
{ "type": "Feature", "properties": { "cases": 20.0, "name_ru": "Свердловскаяобласть", "month": 10 }, "geometry": { "type": "Point", "coordinates": [ 61.530809127245391, 58.594500499194439 ] } },
{ "type": "Feature", "properties": { "cases": 50.0, "name_ru": "Санкт-Петербург", "month": 12 }, "geometry": { "type": "Point", "coordinates": [ 30.186235412549767, 59.899024581648547 ] } },
{ "type": "Feature", "properties": { "cases": 15.0, "name_ru": "Липецкаяобласть", "month": 15 }, "geometry": { "type": "Point", "coordinates": [ 39.135426015731078, 52.645878641028062 ] } },
{ "type": "Feature", "properties": { "cases": 15.0, "name_ru": "Мурманскаяобласть", "month": 16 }, "geometry": { "type": "Point", "coordinates": [ 34.59973759323772, 67.814617070277819 ] } },
{ "type": "Feature", "properties": { "cases": 15.0, "name_ru": "РеспубликаДагестан", "month": 15 }, "geometry": { "type": "Point", "coordinates": [ 46.870781419485624, 43.016812411979906 ] } },
{ "type": "Feature", "properties": { "cases": 15.0, "name_ru": "РеспубликаКрым", "month": 11 }, "geometry": { "type": "Point", "coordinates": [ 34.365750302304733, 45.325326226890077 ] } },
{ "type": "Feature", "properties": { "cases": 15.0, "name_ru": "РеспубликаКрым", "month": 12 }, "geometry": { "type": "Point", "coordinates": [ 34.365750302304733, 45.325326226890077 ] } },
{ "type": "Feature", "properties": { "cases": 15.0, "name_ru": "РеспубликаКрым", "month": 13 }, "geometry": { "type": "Point", "coordinates": [ 34.365750302304733, 45.325326226890077 ] } },
{ "type": "Feature", "properties": { "cases": 15.0, "name_ru": "РеспубликаСаха(Якутия)", "month": 12 }, "geometry": { "type": "Point", "coordinates": [ 130.109851382516553, 66.182118500879639 ] } },
{ "type": "Feature", "properties": { "cases": 15.0, "name_ru": "РеспубликаСаха(Якутия)", "month": 13 }, "geometry": { "type": "Point", "coordinates": [ 130.109851382516553, 66.182118500879639 ] } },
{ "type": "Feature", "properties": { "cases": 15.0, "name_ru": "РеспубликаСаха(Якутия)", "month": 14 }, "geometry": { "type": "Point", "coordinates": [ 130.109851382516553, 66.182118500879639 ] } },
{ "type": "Feature", "properties": { "cases": 15.0, "name_ru": "РеспубликаСаха(Якутия)", "month": 15 }, "geometry": { "type": "Point", "coordinates": [ 130.109851382516553, 66.182118500879639 ] } },
{ "type": "Feature", "properties": { "cases": 15.0, "name_ru": "РеспубликаСаха(Якутия)", "month": 16 }, "geometry": { "type": "Point", "coordinates": [ 130.109851382516553, 66.182118500879639 ] } },
{ "type": "Feature", "properties": { "cases": 15.0, "name_ru": "Самарскаяобласть", "month": 14 }, "geometry": { "type": "Point", "coordinates": [ 50.468913359104327, 53.279986967229924 ] } },
{ "type": "Feature", "properties": { "cases": 15.0, "name_ru": "Самарскаяобласть", "month": 15 }, "geometry": { "type": "Point", "coordinates": [ 50.468913359104327, 53.279986967229924 ] } },
{ "type": "Feature", "properties": { "cases": 15.0, "name_ru": "Саратовскаяобласть", "month": 15 }, "geometry": { "type": "Point", "coordinates": [ 46.792941152061971, 51.583357055722608 ] } },
{ "type": "Feature", "properties": { "cases": 15.0, "name_ru": "Саратовскаяобласть", "month": 16 }, "geometry": { "type": "Point", "coordinates": [ 46.792941152061971, 51.583357055722608 ] } },
{ "type": "Feature", "properties": { "cases": 38.0, "name_ru": "Свердловскаяобласть", "month": 16 }, "geometry": { "type": "Point", "coordinates": [ 61.530809127245391, 58.594500499194439 ] } },
{ "type": "Feature", "properties": { "cases": 6.0, "name_ru": "Воронежскаяобласть", "month": 7 }, "geometry": { "type": "Point", "coordinates": [ 40.217910960847362, 50.970836360511321 ] } },
{ "type": "Feature", "properties": { "cases": 6.0, "name_ru": "Воронежскаяобласть", "month": 8 }, "geometry": { "type": "Point", "coordinates": [ 40.217910960847362, 50.970836360511321 ] } },
{ "type": "Feature", "properties": { "cases": 6.0, "name_ru": "Воронежскаяобласть", "month": 9 }, "geometry": { "type": "Point", "coordinates": [ 40.217910960847362, 50.970836360511321 ] } },
{ "type": "Feature", "properties": { "cases": 6.0, "name_ru": "Воронежскаяобласть", "month": 10 }, "geometry": { "type": "Point", "coordinates": [ 40.217910960847362, 50.970836360511321 ] } },
{ "type": "Feature", "properties": { "cases": 6.0, "name_ru": "Воронежскаяобласть", "month": 11 }, "geometry": { "type": "Point", "coordinates": [ 40.217910960847362, 50.970836360511321 ] } },
{ "type": "Feature", "properties": { "cases": 6.0, "name_ru": "Воронежскаяобласть", "month": 12 }, "geometry": { "type": "Point", "coordinates": [ 40.217910960847362, 50.970836360511321 ] } },
{ "type": "Feature", "properties": { "cases": 6.0, "name_ru": "Воронежскаяобласть", "month": 13 }, "geometry": { "type": "Point", "coordinates": [ 40.217910960847362, 50.970836360511321 ] } },
{ "type": "Feature", "properties": { "cases": 98.0, "name_ru": "Москва", "month": 1 }, "geometry": { "type": "Point", "coordinates": [ 37.362445475776951, 55.499315019907002 ] } },
{ "type": "Feature", "properties": { "cases": 6.0, "name_ru": "Оренбургскаяобласть", "month": 11 }, "geometry": { "type": "Point", "coordinates": [ 55.623732617321409, 51.991483802685075 ] } },
{ "type": "Feature", "properties": { "cases": 6.0, "name_ru": "Оренбургскаяобласть", "month": 12 }, "geometry": { "type": "Point", "coordinates": [ 55.623732617321409, 51.991483802685075 ] } },
{ "type": "Feature", "properties": { "cases": 6.0, "name_ru": "РеспубликаТатарстан", "month": 4 }, "geometry": { "type": "Point", "coordinates": [ 50.911599165160609, 55.359286667923655 ] } },
{ "type": "Feature", "properties": { "cases": 6.0, "name_ru": "РеспубликаТатарстан", "month": 5 }, "geometry": { "type": "Point", "coordinates": [ 50.911599165160609, 55.359286667923655 ] } },
{ "type": "Feature", "properties": { "cases": 6.0, "name_ru": "РеспубликаТатарстан", "month": 6 }, "geometry": { "type": "Point", "coordinates": [ 50.911599165160609, 55.359286667923655 ] } },
{ "type": "Feature", "properties": { "cases": 98.0, "name_ru": "Санкт-Петербург", "month": 13 }, "geometry": { "type": "Point", "coordinates": [ 30.186235412549767, 59.899024581648547 ] } },
{ "type": "Feature", "properties": { "cases": 6.0, "name_ru": "Свердловскаяобласть", "month": 2 }, "geometry": { "type": "Point", "coordinates": [ 61.530809127245391, 58.594500499194439 ] } },
{ "type": "Feature", "properties": { "cases": 6.0, "name_ru": "Свердловскаяобласть", "month": 3 }, "geometry": { "type": "Point", "coordinates": [ 61.530809127245391, 58.594500499194439 ] } },
{ "type": "Feature", "properties": { "cases": 6.0, "name_ru": "Ставропольскийкрай", "month": 13 }, "geometry": { "type": "Point", "coordinates": [ 43.35164379866783, 44.952534638070283 ] } },
{ "type": "Feature", "properties": { "cases": 6.0, "name_ru": "Ставропольскийкрай", "month": 14 }, "geometry": { "type": "Point", "coordinates": [ 43.35164379866783, 44.952534638070283 ] } },
{ "type": "Feature", "properties": { "cases": 6.0, "name_ru": "Ставропольскийкрай", "month": 15 }, "geometry": { "type": "Point", "coordinates": [ 43.35164379866783, 44.952534638070283 ] } },
{ "type": "Feature", "properties": { "cases": 1880.0, "name_ru": "Москва", "month": 14 }, "geometry": { "type": "Point", "coordinates": [ 37.362445475776951, 55.499315019907002 ] } },
{ "type": "Feature", "properties": { "cases": 290.0, "name_ru": "Москва", "month": 6 }, "geometry": { "type": "Point", "coordinates": [ 37.362445475776951, 55.499315019907002 ] } },
{ "type": "Feature", "properties": { "cases": 56.0, "name_ru": "РеспубликаКоми", "month": 16 }, "geometry": { "type": "Point", "coordinates": [ 54.783968874283417, 64.128449926011754 ] } },
{ "type": "Feature", "properties": { "cases": 817.0, "name_ru": "Москва", "month": 10 }, "geometry": { "type": "Point", "coordinates": [ 37.362445475776951, 55.499315019907002 ] } },
{ "type": "Feature", "properties": { "cases": 177.0, "name_ru": "Московскаяобласть", "month": 15 }, "geometry": { "type": "Point", "coordinates": [ 37.666151601855979, 55.666939030371552 ] } },
{ "type": "Feature", "properties": { "cases": 1226.0, "name_ru": "Москва", "month": 12 }, "geometry": { "type": "Point", "coordinates": [ 37.362445475776951, 55.499315019907002 ] } },
{ "type": "Feature", "properties": { "cases": 16.0, "name_ru": "Пензенскаяобласть", "month": 15 }, "geometry": { "type": "Point", "coordinates": [ 44.637723566656831, 53.193004644594396 ] } },
{ "type": "Feature", "properties": { "cases": 16.0, "name_ru": "Пензенскаяобласть", "month": 16 }, "geometry": { "type": "Point", "coordinates": [ 44.637723566656831, 53.193004644594396 ] } },
{ "type": "Feature", "properties": { "cases": 16.0, "name_ru": "РеспубликаКрым", "month": 14 }, "geometry": { "type": "Point", "coordinates": [ 34.365750302304733, 45.325326226890077 ] } },
{ "type": "Feature", "properties": { "cases": 16.0, "name_ru": "РеспубликаКрым", "month": 15 }, "geometry": { "type": "Point", "coordinates": [ 34.365750302304733, 45.325326226890077 ] } },
{ "type": "Feature", "properties": { "cases": 16.0, "name_ru": "РеспубликаКрым", "month": 16 }, "geometry": { "type": "Point", "coordinates": [ 34.365750302304733, 45.325326226890077 ] } },
{ "type": "Feature", "properties": { "cases": 16.0, "name_ru": "Санкт-Петербург", "month": 3 }, "geometry": { "type": "Point", "coordinates": [ 30.186235412549767, 59.899024581648547 ] } },
{ "type": "Feature", "properties": { "cases": 16.0, "name_ru": "Санкт-Петербург", "month": 4 }, "geometry": { "type": "Point", "coordinates": [ 30.186235412549767, 59.899024581648547 ] } },
{ "type": "Feature", "properties": { "cases": 16.0, "name_ru": "Санкт-Петербург", "month": 5 }, "geometry": { "type": "Point", "coordinates": [ 30.186235412549767, 59.899024581648547 ] } },
{ "type": "Feature", "properties": { "cases": 10.0, "name_ru": "Липецкаяобласть", "month": 12 }, "geometry": { "type": "Point", "coordinates": [ 39.135426015731078, 52.645878641028062 ] } },
{ "type": "Feature", "properties": { "cases": 10.0, "name_ru": "Липецкаяобласть", "month": 13 }, "geometry": { "type": "Point", "coordinates": [ 39.135426015731078, 52.645878641028062 ] } },
{ "type": "Feature", "properties": { "cases": 10.0, "name_ru": "Новосибирскаяобласть", "month": 15 }, "geometry": { "type": "Point", "coordinates": [ 79.758095846238163, 55.280746103662807 ] } },
{ "type": "Feature", "properties": { "cases": 10.0, "name_ru": "Новосибирскаяобласть", "month": 16 }, "geometry": { "type": "Point", "coordinates": [ 79.758095846238163, 55.280746103662807 ] } },
{ "type": "Feature", "properties": { "cases": 10.0, "name_ru": "Пермскийкрай", "month": 9 }, "geometry": { "type": "Point", "coordinates": [ 56.225532548350479, 59.116299055761317 ] } },
{ "type": "Feature", "properties": { "cases": 10.0, "name_ru": "Пермскийкрай", "month": 10 }, "geometry": { "type": "Point", "coordinates": [ 56.225532548350479, 59.116299055761317 ] } },
{ "type": "Feature", "properties": { "cases": 10.0, "name_ru": "РеспубликаБашкортостан", "month": 16 }, "geometry": { "type": "Point", "coordinates": [ 56.513672227916707, 54.273768743977421 ] } },
{ "type": "Feature", "properties": { "cases": 10.0, "name_ru": "РеспубликаСаха(Якутия)", "month": 8 }, "geometry": { "type": "Point", "coordinates": [ 130.109851382516553, 66.182118500879639 ] } },
{ "type": "Feature", "properties": { "cases": 10.0, "name_ru": "РеспубликаТатарстан", "month": 9 }, "geometry": { "type": "Point", "coordinates": [ 50.911599165160609, 55.359286667923655 ] } },
{ "type": "Feature", "properties": { "cases": 10.0, "name_ru": "Самарскаяобласть", "month": 7 }, "geometry": { "type": "Point", "coordinates": [ 50.468913359104327, 53.279986967229924 ] } },
{ "type": "Feature", "properties": { "cases": 10.0, "name_ru": "Самарскаяобласть", "month": 8 }, "geometry": { "type": "Point", "coordinates": [ 50.468913359104327, 53.279986967229924 ] } },
{ "type": "Feature", "properties": { "cases": 10.0, "name_ru": "Санкт-Петербург", "month": 1 }, "geometry": { "type": "Point", "coordinates": [ 30.186235412549767, 59.899024581648547 ] } },
{ "type": "Feature", "properties": { "cases": 10.0, "name_ru": "ЧеченскаяРеспублика", "month": 15 }, "geometry": { "type": "Point", "coordinates": [ 45.74164439305715, 43.30218552100024 ] } },
{ "type": "Feature", "properties": { "cases": 10.0, "name_ru": "ЧеченскаяРеспублика", "month": 16 }, "geometry": { "type": "Point", "coordinates": [ 45.74164439305715, 43.30218552100024 ] } },
{ "type": "Feature", "properties": { "cases": 1.0, "name_ru": "Ивановскаяобласть", "month": 2 }, "geometry": { "type": "Point", "coordinates": [ 41.709304806409534, 57.016008071636662 ] } },
{ "type": "Feature", "properties": { "cases": 1.0, "name_ru": "Ивановскаяобласть", "month": 3 }, "geometry": { "type": "Point", "coordinates": [ 41.709304806409534, 57.016008071636662 ] } },
{ "type": "Feature", "properties": { "cases": 1.0, "name_ru": "Ивановскаяобласть", "month": 4 }, "geometry": { "type": "Point", "coordinates": [ 41.709304806409534, 57.016008071636662 ] } },
{ "type": "Feature", "properties": { "cases": 1.0, "name_ru": "Ивановскаяобласть", "month": 5 }, "geometry": { "type": "Point", "coordinates": [ 41.709304806409534, 57.016008071636662 ] } },
{ "type": "Feature", "properties": { "cases": 1.0, "name_ru": "Ивановскаяобласть", "month": 6 }, "geometry": { "type": "Point", "coordinates": [ 41.709304806409534, 57.016008071636662 ] } },
{ "type": "Feature", "properties": { "cases": 1.0, "name_ru": "Ивановскаяобласть", "month": 7 }, "geometry": { "type": "Point", "coordinates": [ 41.709304806409534, 57.016008071636662 ] } },
{ "type": "Feature", "properties": { "cases": 1.0, "name_ru": "Ивановскаяобласть", "month": 8 }, "geometry": { "type": "Point", "coordinates": [ 41.709304806409534, 57.016008071636662 ] } },
{ "type": "Feature", "properties": { "cases": 1.0, "name_ru": "Ивановскаяобласть", "month": 9 }, "geometry": { "type": "Point", "coordinates": [ 41.709304806409534, 57.016008071636662 ] } },
{ "type": "Feature", "properties": { "cases": 1.0, "name_ru": "Кировскаяобласть", "month": 0 }, "geometry": { "type": "Point", "coordinates": [ 49.830485442775995, 58.685751707728116 ] } },
{ "type": "Feature", "properties": { "cases": 1.0, "name_ru": "Кировскаяобласть", "month": 1 }, "geometry": { "type": "Point", "coordinates": [ 49.830485442775995, 58.685751707728116 ] } },
{ "type": "Feature", "properties": { "cases": 1.0, "name_ru": "Краснодарскийкрай", "month": 0 }, "geometry": { "type": "Point", "coordinates": [ 39.465728558210685, 45.260490148450955 ] } },
{ "type": "Feature", "properties": { "cases": 1.0, "name_ru": "Краснодарскийкрай", "month": 1 }, "geometry": { "type": "Point", "coordinates": [ 39.465728558210685, 45.260490148450955 ] } },
{ "type": "Feature", "properties": { "cases": 1.0, "name_ru": "Красноярскийкрай", "month": 0 }, "geometry": { "type": "Point", "coordinates": [ 95.998539466267871, 67.470989500619254 ] } },
{ "type": "Feature", "properties": { "cases": 1.0, "name_ru": "Красноярскийкрай", "month": 1 }, "geometry": { "type": "Point", "coordinates": [ 95.998539466267871, 67.470989500619254 ] } },
{ "type": "Feature", "properties": { "cases": 1.0, "name_ru": "Ленинградскаяобласть", "month": 0 }, "geometry": { "type": "Point", "coordinates": [ 31.709207150932414, 60.007255664012277 ] } },
{ "type": "Feature", "properties": { "cases": 1.0, "name_ru": "Ленинградскаяобласть", "month": 1 }, "geometry": { "type": "Point", "coordinates": [ 31.709207150932414, 60.007255664012277 ] } },
{ "type": "Feature", "properties": { "cases": 1.0, "name_ru": "Ленинградскаяобласть", "month": 2 }, "geometry": { "type": "Point", "coordinates": [ 31.709207150932414, 60.007255664012277 ] } },
{ "type": "Feature", "properties": { "cases": 1.0, "name_ru": "Ленинградскаяобласть", "month": 3 }, "geometry": { "type": "Point", "coordinates": [ 31.709207150932414, 60.007255664012277 ] } },
{ "type": "Feature", "properties": { "cases": 1.0, "name_ru": "Ленинградскаяобласть", "month": 4 }, "geometry": { "type": "Point", "coordinates": [ 31.709207150932414, 60.007255664012277 ] } },
{ "type": "Feature", "properties": { "cases": 1.0, "name_ru": "Ленинградскаяобласть", "month": 5 }, "geometry": { "type": "Point", "coordinates": [ 31.709207150932414, 60.007255664012277 ] } },
{ "type": "Feature", "properties": { "cases": 1.0, "name_ru": "Ленинградскаяобласть", "month": 6 }, "geometry": { "type": "Point", "coordinates": [ 31.709207150932414, 60.007255664012277 ] } },
{ "type": "Feature", "properties": { "cases": 1.0, "name_ru": "Мурманскаяобласть", "month": 2 }, "geometry": { "type": "Point", "coordinates": [ 34.59973759323772, 67.814617070277819 ] } },
{ "type": "Feature", "properties": { "cases": 1.0, "name_ru": "Мурманскаяобласть", "month": 3 }, "geometry": { "type": "Point", "coordinates": [ 34.59973759323772, 67.814617070277819 ] } },
{ "type": "Feature", "properties": { "cases": 1.0, "name_ru": "Мурманскаяобласть", "month": 4 }, "geometry": { "type": "Point", "coordinates": [ 34.59973759323772, 67.814617070277819 ] } },
{ "type": "Feature", "properties": { "cases": 1.0, "name_ru": "Мурманскаяобласть", "month": 5 }, "geometry": { "type": "Point", "coordinates": [ 34.59973759323772, 67.814617070277819 ] } },
{ "type": "Feature", "properties": { "cases": 1.0, "name_ru": "Мурманскаяобласть", "month": 6 }, "geometry": { "type": "Point", "coordinates": [ 34.59973759323772, 67.814617070277819 ] } },
{ "type": "Feature", "properties": { "cases": 1.0, "name_ru": "Мурманскаяобласть", "month": 7 }, "geometry": { "type": "Point", "coordinates": [ 34.59973759323772, 67.814617070277819 ] } },
{ "type": "Feature", "properties": { "cases": 1.0, "name_ru": "Мурманскаяобласть", "month": 8 }, "geometry": { "type": "Point", "coordinates": [ 34.59973759323772, 67.814617070277819 ] } },
{ "type": "Feature", "properties": { "cases": 1.0, "name_ru": "Мурманскаяобласть", "month": 9 }, "geometry": { "type": "Point", "coordinates": [ 34.59973759323772, 67.814617070277819 ] } },
{ "type": "Feature", "properties": { "cases": 1.0, "name_ru": "Мурманскаяобласть", "month": 10 }, "geometry": { "type": "Point", "coordinates": [ 34.59973759323772, 67.814617070277819 ] } },
{ "type": "Feature", "properties": { "cases": 1.0, "name_ru": "Мурманскаяобласть", "month": 11 }, "geometry": { "type": "Point", "coordinates": [ 34.59973759323772, 67.814617070277819 ] } },
{ "type": "Feature", "properties": { "cases": 1.0, "name_ru": "Новосибирскаяобласть", "month": 1 }, "geometry": { "type": "Point", "coordinates": [ 79.758095846238163, 55.280746103662807 ] } },
{ "type": "Feature", "properties": { "cases": 1.0, "name_ru": "Оренбургскаяобласть", "month": 2 }, "geometry": { "type": "Point", "coordinates": [ 55.623732617321409, 51.991483802685075 ] } },
{ "type": "Feature", "properties": { "cases": 1.0, "name_ru": "Оренбургскаяобласть", "month": 3 }, "geometry": { "type": "Point", "coordinates": [ 55.623732617321409, 51.991483802685075 ] } },
{ "type": "Feature", "properties": { "cases": 1.0, "name_ru": "Оренбургскаяобласть", "month": 4 }, "geometry": { "type": "Point", "coordinates": [ 55.623732617321409, 51.991483802685075 ] } },
{ "type": "Feature", "properties": { "cases": 1.0, "name_ru": "Оренбургскаяобласть", "month": 5 }, "geometry": { "type": "Point", "coordinates": [ 55.623732617321409, 51.991483802685075 ] } },
{ "type": "Feature", "properties": { "cases": 1.0, "name_ru": "Оренбургскаяобласть", "month": 6 }, "geometry": { "type": "Point", "coordinates": [ 55.623732617321409, 51.991483802685075 ] } },
{ "type": "Feature", "properties": { "cases": 1.0, "name_ru": "Оренбургскаяобласть", "month": 7 }, "geometry": { "type": "Point", "coordinates": [ 55.623732617321409, 51.991483802685075 ] } },
{ "type": "Feature", "properties": { "cases": 1.0, "name_ru": "Пензенскаяобласть", "month": 0 }, "geometry": { "type": "Point", "coordinates": [ 44.637723566656831, 53.193004644594396 ] } },
{ "type": "Feature", "properties": { "cases": 1.0, "name_ru": "Пензенскаяобласть", "month": 1 }, "geometry": { "type": "Point", "coordinates": [ 44.637723566656831, 53.193004644594396 ] } },
{ "type": "Feature", "properties": { "cases": 1.0, "name_ru": "Пензенскаяобласть", "month": 2 }, "geometry": { "type": "Point", "coordinates": [ 44.637723566656831, 53.193004644594396 ] } },
{ "type": "Feature", "properties": { "cases": 1.0, "name_ru": "Пензенскаяобласть", "month": 3 }, "geometry": { "type": "Point", "coordinates": [ 44.637723566656831, 53.193004644594396 ] } },
{ "type": "Feature", "properties": { "cases": 1.0, "name_ru": "Пензенскаяобласть", "month": 4 }, "geometry": { "type": "Point", "coordinates": [ 44.637723566656831, 53.193004644594396 ] } },
{ "type": "Feature", "properties": { "cases": 1.0, "name_ru": "Пензенскаяобласть", "month": 5 }, "geometry": { "type": "Point", "coordinates": [ 44.637723566656831, 53.193004644594396 ] } },
{ "type": "Feature", "properties": { "cases": 1.0, "name_ru": "Пензенскаяобласть", "month": 6 }, "geometry": { "type": "Point", "coordinates": [ 44.637723566656831, 53.193004644594396 ] } },
{ "type": "Feature", "properties": { "cases": 1.0, "name_ru": "Пензенскаяобласть", "month": 7 }, "geometry": { "type": "Point", "coordinates": [ 44.637723566656831, 53.193004644594396 ] } },
{ "type": "Feature", "properties": { "cases": 1.0, "name_ru": "РеспубликаДагестан", "month": 10 }, "geometry": { "type": "Point", "coordinates": [ 46.870781419485624, 43.016812411979906 ] } },
{ "type": "Feature", "properties": { "cases": 1.0, "name_ru": "РеспубликаДагестан", "month": 11 }, "geometry": { "type": "Point", "coordinates": [ 46.870781419485624, 43.016812411979906 ] } },
{ "type": "Feature", "properties": { "cases": 1.0, "name_ru": "РеспубликаДагестан", "month": 12 }, "geometry": { "type": "Point", "coordinates": [ 46.870781419485624, 43.016812411979906 ] } },
{ "type": "Feature", "properties": { "cases": 1.0, "name_ru": "РеспубликаКоми", "month": 0 }, "geometry": { "type": "Point", "coordinates": [ 54.783968874283417, 64.128449926011754 ] } },
{ "type": "Feature", "properties": { "cases": 1.0, "name_ru": "РеспубликаКоми", "month": 1 }, "geometry": { "type": "Point", "coordinates": [ 54.783968874283417, 64.128449926011754 ] } },
{ "type": "Feature", "properties": { "cases": 1.0, "name_ru": "РеспубликаКоми", "month": 2 }, "geometry": { "type": "Point", "coordinates": [ 54.783968874283417, 64.128449926011754 ] } },
{ "type": "Feature", "properties": { "cases": 1.0, "name_ru": "РеспубликаКоми", "month": 3 }, "geometry": { "type": "Point", "coordinates": [ 54.783968874283417, 64.128449926011754 ] } },
{ "type": "Feature", "properties": { "cases": 1.0, "name_ru": "РеспубликаКоми", "month": 4 }, "geometry": { "type": "Point", "coordinates": [ 54.783968874283417, 64.128449926011754 ] } },
{ "type": "Feature", "properties": { "cases": 1.0, "name_ru": "РеспубликаКоми", "month": 5 }, "geometry": { "type": "Point", "coordinates": [ 54.783968874283417, 64.128449926011754 ] } },
{ "type": "Feature", "properties": { "cases": 1.0, "name_ru": "РеспубликаКоми", "month": 6 }, "geometry": { "type": "Point", "coordinates": [ 54.783968874283417, 64.128449926011754 ] } },
{ "type": "Feature", "properties": { "cases": 1.0, "name_ru": "РеспубликаКоми", "month": 7 }, "geometry": { "type": "Point", "coordinates": [ 54.783968874283417, 64.128449926011754 ] } },
{ "type": "Feature", "properties": { "cases": 1.0, "name_ru": "РеспубликаКрым", "month": 4 }, "geometry": { "type": "Point", "coordinates": [ 34.365750302304733, 45.325326226890077 ] } },
{ "type": "Feature", "properties": { "cases": 1.0, "name_ru": "РеспубликаКрым", "month": 5 }, "geometry": { "type": "Point", "coordinates": [ 34.365750302304733, 45.325326226890077 ] } },
{ "type": "Feature", "properties": { "cases": 1.0, "name_ru": "РеспубликаКрым", "month": 6 }, "geometry": { "type": "Point", "coordinates": [ 34.365750302304733, 45.325326226890077 ] } },
{ "type": "Feature", "properties": { "cases": 1.0, "name_ru": "РеспубликаКрым", "month": 7 }, "geometry": { "type": "Point", "coordinates": [ 34.365750302304733, 45.325326226890077 ] } },
{ "type": "Feature", "properties": { "cases": 1.0, "name_ru": "РеспубликаСаха(Якутия)", "month": 2 }, "geometry": { "type": "Point", "coordinates": [ 130.109851382516553, 66.182118500879639 ] } },
{ "type": "Feature", "properties": { "cases": 1.0, "name_ru": "РеспубликаТатарстан", "month": 0 }, "geometry": { "type": "Point", "coordinates": [ 50.911599165160609, 55.359286667923655 ] } },
{ "type": "Feature", "properties": { "cases": 1.0, "name_ru": "РеспубликаТатарстан", "month": 1 }, "geometry": { "type": "Point", "coordinates": [ 50.911599165160609, 55.359286667923655 ] } },
{ "type": "Feature", "properties": { "cases": 1.0, "name_ru": "РеспубликаТатарстан", "month": 2 }, "geometry": { "type": "Point", "coordinates": [ 50.911599165160609, 55.359286667923655 ] } },
{ "type": "Feature", "properties": { "cases": 1.0, "name_ru": "РеспубликаТатарстан", "month": 3 }, "geometry": { "type": "Point", "coordinates": [ 50.911599165160609, 55.359286667923655 ] } },
{ "type": "Feature", "properties": { "cases": 1.0, "name_ru": "Саратовскаяобласть", "month": 2 }, "geometry": { "type": "Point", "coordinates": [ 46.792941152061971, 51.583357055722608 ] } },
{ "type": "Feature", "properties": { "cases": 1.0, "name_ru": "Саратовскаяобласть", "month": 3 }, "geometry": { "type": "Point", "coordinates": [ 46.792941152061971, 51.583357055722608 ] } },
{ "type": "Feature", "properties": { "cases": 1.0, "name_ru": "Саратовскаяобласть", "month": 4 }, "geometry": { "type": "Point", "coordinates": [ 46.792941152061971, 51.583357055722608 ] } },
{ "type": "Feature", "properties": { "cases": 1.0, "name_ru": "Саратовскаяобласть", "month": 5 }, "geometry": { "type": "Point", "coordinates": [ 46.792941152061971, 51.583357055722608 ] } },
{ "type": "Feature", "properties": { "cases": 1.0, "name_ru": "Саратовскаяобласть", "month": 6 }, "geometry": { "type": "Point", "coordinates": [ 46.792941152061971, 51.583357055722608 ] } },
{ "type": "Feature", "properties": { "cases": 1.0, "name_ru": "Саратовскаяобласть", "month": 7 }, "geometry": { "type": "Point", "coordinates": [ 46.792941152061971, 51.583357055722608 ] } },
{ "type": "Feature", "properties": { "cases": 1.0, "name_ru": "Саратовскаяобласть", "month": 8 }, "geometry": { "type": "Point", "coordinates": [ 46.792941152061971, 51.583357055722608 ] } },
{ "type": "Feature", "properties": { "cases": 1.0, "name_ru": "Саратовскаяобласть", "month": 9 }, "geometry": { "type": "Point", "coordinates": [ 46.792941152061971, 51.583357055722608 ] } },
{ "type": "Feature", "properties": { "cases": 1.0, "name_ru": "Саратовскаяобласть", "month": 10 }, "geometry": { "type": "Point", "coordinates": [ 46.792941152061971, 51.583357055722608 ] } },
{ "type": "Feature", "properties": { "cases": 1.0, "name_ru": "Свердловскаяобласть", "month": 0 }, "geometry": { "type": "Point", "coordinates": [ 61.530809127245391, 58.594500499194439 ] } },
{ "type": "Feature", "properties": { "cases": 1.0, "name_ru": "Свердловскаяобласть", "month": 1 }, "geometry": { "type": "Point", "coordinates": [ 61.530809127245391, 58.594500499194439 ] } },
{ "type": "Feature", "properties": { "cases": 1.0, "name_ru": "Ставропольскийкрай", "month": 4 }, "geometry": { "type": "Point", "coordinates": [ 43.35164379866783, 44.952534638070283 ] } },
{ "type": "Feature", "properties": { "cases": 1.0, "name_ru": "Ставропольскийкрай", "month": 5 }, "geometry": { "type": "Point", "coordinates": [ 43.35164379866783, 44.952534638070283 ] } },
{ "type": "Feature", "properties": { "cases": 1.0, "name_ru": "Ставропольскийкрай", "month": 6 }, "geometry": { "type": "Point", "coordinates": [ 43.35164379866783, 44.952534638070283 ] } },
{ "type": "Feature", "properties": { "cases": 1.0, "name_ru": "Ставропольскийкрай", "month": 7 }, "geometry": { "type": "Point", "coordinates": [ 43.35164379866783, 44.952534638070283 ] } },
{ "type": "Feature", "properties": { "cases": 1.0, "name_ru": "Челябинскаяобласть", "month": 4 }, "geometry": { "type": "Point", "coordinates": [ 60.390486642675604, 54.450379902463695 ] } },
{ "type": "Feature", "properties": { "cases": 1.0, "name_ru": "Челябинскаяобласть", "month": 5 }, "geometry": { "type": "Point", "coordinates": [ 60.390486642675604, 54.450379902463695 ] } },
{ "type": "Feature", "properties": { "cases": 1.0, "name_ru": "Челябинскаяобласть", "month": 6 }, "geometry": { "type": "Point", "coordinates": [ 60.390486642675604, 54.450379902463695 ] } },
{ "type": "Feature", "properties": { "cases": 1.0, "name_ru": "Челябинскаяобласть", "month": 7 }, "geometry": { "type": "Point", "coordinates": [ 60.390486642675604, 54.450379902463695 ] } },
{ "type": "Feature", "properties": { "cases": 1.0, "name_ru": "ЧеченскаяРеспублика", "month": 7 }, "geometry": { "type": "Point", "coordinates": [ 45.74164439305715, 43.30218552100024 ] } },
{ "type": "Feature", "properties": { "cases": 1.0, "name_ru": "ЧеченскаяРеспублика", "month": 8 }, "geometry": { "type": "Point", "coordinates": [ 45.74164439305715, 43.30218552100024 ] } }
]
}
